{
  "type": "FeatureCollection",
  "features": [
    {
      "type": "Feature",
      "geometry": {
        "type": "MultiPolygon",
        "coordinates": [
          [
            [
              [
                -122.2570939,
                37.5625959
              ],
              [
                -122.258597,
                37.564044
              ],
              [
                -122.261093,
                37.565351
              ],
              [
                -122.263978,
                37.565898
              ],
              [
                -122.265913,
                37.566037
              ],
              [
                -122.266054,
                37.565635
              ],
              [
                -122.2682763,
                37.5656678
              ],
              [
                -122.269895,
                37.566789
              ],
              [
                -122.26236279,
                37.57374165
              ],
              [
                -122.251746,
                37.567633
              ],
              [
                -122.251078,
                37.566502
              ],
              [
                -122.249365,
                37.564629
              ],
              [
                -122.249709,
                37.564263
              ],
              [
                -122.253715,
                37.56265
              ],
              [
                -122.25391,
                37.562266
              ],
              [
                -122.253569,
                37.561202
              ],
              [
                -122.254899,
                37.560985
              ],
              [
                -122.255329,
                37.562069
              ],
              [
                -122.255879,
                37.562937
              ],
              [
                -122.2570939,
                37.5625959
              ]
            ]
          ]
        ]
      },
      "properties": {
        "id": 44576,
        "name": "Bay Vista",
        "slug": "bay-vista",
        "city": "Foster City",
        "county": "San Mateo County",
        "state": "CA",
        "hidden": false,
        "center_latitude": 37.567363327355736,
        "center_longitude": -122.25963000002443
      }
    },
    {
      "type": "Feature",
      "geometry": {
        "type": "MultiPolygon",
        "coordinates": [
          [
            [
              [
                -122.247646,
                37.561122
              ],
              [
                -122.247334,
                37.559614
              ],
              [
                -122.246197,
                37.557932
              ],
              [
                -122.245284,
                37.557073
              ],
              [
                -122.24521,
                37.555848
              ],
              [
                -122.246764,
                37.552769
              ],
              [
                -122.248244,
                37.55118
              ],
              [
                -122.249367,
                37.550501
              ],
              [
                -122.252864,
                37.552189
              ],
              [
                -122.25885,
                37.555562
              ],
              [
                -122.257147,
                37.556003
              ],
              [
                -122.256834,
                37.556226
              ],
              [
                -122.256163,
                37.557863
              ],
              [
                -122.256006,
                37.558908
              ],
              [
                -122.256092,
                37.559898
              ],
              [
                -122.256384,
                37.561152
              ],
              [
                -122.2570939,
                37.5625959
              ],
              [
                -122.255879,
                37.562937
              ],
              [
                -122.255329,
                37.562069
              ],
              [
                -122.254899,
                37.560985
              ],
              [
                -122.253569,
                37.561202
              ],
              [
                -122.25391,
                37.562266
              ],
              [
                -122.253715,
                37.56265
              ],
              [
                -122.249702,
                37.564284
              ],
              [
                -122.249011,
                37.564142
              ],
              [
                -122.249116,
                37.563716
              ],
              [
                -122.248895,
                37.563062
              ],
              [
                -122.248382,
                37.562578
              ],
              [
                -122.248105,
                37.5617
              ],
              [
                -122.247646,
                37.561122
              ]
            ]
          ]
        ]
      },
      "properties": {
        "id": 45474,
        "name": "Carmel Village",
        "slug": "carmel-village",
        "city": "Foster City",
        "county": "San Mateo County",
        "state": "CA",
        "hidden": false,
        "center_latitude": 37.55739250021375,
        "center_longitude": -122.25199700011143
      }
    },
    {
      "type": "Feature",
      "geometry": {
        "type": "MultiPolygon",
        "coordinates": [
          [
            [
              [
                -122.269823,
                37.544687
              ],
              [
                -122.269753,
                37.542194
              ],
              [
                -122.269475,
                37.541759
              ],
              [
                -122.268993,
                37.5414152
              ],
              [
                -122.2690228,
                37.5387653
              ],
              [
                -122.268082,
                37.538695
              ],
              [
                -122.2673471,
                37.5384322
              ],
              [
                -122.266645,
                37.5378723
              ],
              [
                -122.2657827,
                37.5367119
              ],
              [
                -122.265032,
                37.536318
              ],
              [
                -122.26337,
                37.535901
              ],
              [
                -122.263494,
                37.535699
              ],
              [
                -122.26402,
                37.535175
              ],
              [
                -122.26469,
                37.534056
              ],
              [
                -122.2660403,
                37.5338441
              ],
              [
                -122.266296,
                37.534222
              ],
              [
                -122.273641,
                37.534132
              ],
              [
                -122.273951,
                37.534314
              ],
              [
                -122.275197,
                37.534145
              ],
              [
                -122.276069,
                37.534191
              ],
              [
                -122.276598,
                37.534457
              ],
              [
                -122.2772529,
                37.5340971
              ],
              [
                -122.278731,
                37.535678
              ],
              [
                -122.2791596,
                37.536628
              ],
              [
                -122.278938,
                37.537419
              ],
              [
                -122.277868,
                37.538719
              ],
              [
                -122.277462,
                37.539737
              ],
              [
                -122.277441,
                37.542004
              ],
              [
                -122.277776,
                37.543746
              ],
              [
                -122.276546,
                37.544367
              ],
              [
                -122.276391,
                37.544657
              ],
              [
                -122.275031,
                37.544626
              ],
              [
                -122.271569,
                37.546066
              ],
              [
                -122.269949,
                37.546397
              ],
              [
                -122.269823,
                37.544687
              ]
            ]
          ]
        ]
      },
      "properties": {
        "id": 45212,
        "name": "Dolphin Bay",
        "slug": "dolphin-bay",
        "city": "Foster City",
        "county": "San Mateo County",
        "state": "CA",
        "hidden": false,
        "center_latitude": 37.540120549973466,
        "center_longitude": -122.27126480003048
      }
    },
    {
      "type": "Feature",
      "geometry": {
        "type": "MultiPolygon",
        "coordinates": [
          [
            [
              [
                -122.2605991,
                37.5471059
              ],
              [
                -122.261687,
                37.546975
              ],
              [
                -122.2627,
                37.546279
              ],
              [
                -122.262736,
                37.545799
              ],
              [
                -122.261388,
                37.544526
              ],
              [
                -122.261299,
                37.5440473
              ],
              [
                -122.263135,
                37.542635
              ],
              [
                -122.2640828,
                37.5421238
              ],
              [
                -122.264575,
                37.541547
              ],
              [
                -122.265691,
                37.541225
              ],
              [
                -122.268993,
                37.5414152
              ],
              [
                -122.269475,
                37.541759
              ],
              [
                -122.269753,
                37.542194
              ],
              [
                -122.269949,
                37.546397
              ],
              [
                -122.268181,
                37.546821
              ],
              [
                -122.267479,
                37.547179
              ],
              [
                -122.266214,
                37.548167
              ],
              [
                -122.264677,
                37.548614
              ],
              [
                -122.260604,
                37.548628
              ],
              [
                -122.2605991,
                37.5471059
              ]
            ]
          ]
        ]
      },
      "properties": {
        "id": 45769,
        "name": "Harbor Side",
        "slug": "harbor-side",
        "city": "Foster City",
        "county": "San Mateo County",
        "state": "CA",
        "hidden": false,
        "center_latitude": 37.54492800007719,
        "center_longitude": -122.26527404985748
      }
    },
    {
      "type": "Feature",
      "geometry": {
        "type": "MultiPolygon",
        "coordinates": [
          [
            [
              [
                -122.276391,
                37.555029
              ],
              [
                -122.275001,
                37.553623
              ],
              [
                -122.273546,
                37.554359
              ],
              [
                -122.273617,
                37.553735
              ],
              [
                -122.273254,
                37.552358
              ],
              [
                -122.270488,
                37.5484654
              ],
              [
                -122.269949,
                37.546397
              ],
              [
                -122.271569,
                37.546066
              ],
              [
                -122.275031,
                37.544626
              ],
              [
                -122.276391,
                37.544657
              ],
              [
                -122.276546,
                37.544367
              ],
              [
                -122.27712174,
                37.54409198
              ],
              [
                -122.2774868,
                37.54449272
              ],
              [
                -122.27853203,
                37.54514503
              ],
              [
                -122.27960396,
                37.54665947
              ],
              [
                -122.27985001,
                37.54730034
              ],
              [
                -122.27987289,
                37.54818153
              ],
              [
                -122.28008461,
                37.54844475
              ],
              [
                -122.28050995,
                37.54861641
              ],
              [
                -122.28126526,
                37.54862785
              ],
              [
                -122.28340912,
                37.54828835
              ],
              [
                -122.28376579,
                37.54841804
              ],
              [
                -122.28429794,
                37.54933357
              ],
              [
                -122.28453064,
                37.55024529
              ],
              [
                -122.28410721,
                37.55078697
              ],
              [
                -122.28300095,
                37.55093956
              ],
              [
                -122.28232384,
                37.55125999
              ],
              [
                -122.28190994,
                37.5517025
              ],
              [
                -122.28172684,
                37.55220604
              ],
              [
                -122.28181648,
                37.55297279
              ],
              [
                -122.28216553,
                37.55367851
              ],
              [
                -122.28342819,
                37.55415916
              ],
              [
                -122.28390503,
                37.5540905
              ],
              [
                -122.28390884,
                37.55444908
              ],
              [
                -122.28263092,
                37.55444908
              ],
              [
                -122.28276634,
                37.55462456
              ],
              [
                -122.2806797,
                37.55575752
              ],
              [
                -122.27931595,
                37.55611229
              ],
              [
                -122.279229,
                37.555376
              ],
              [
                -122.278196,
                37.555039
              ],
              [
                -122.277474,
                37.554371
              ],
              [
                -122.276391,
                37.555029
              ]
            ]
          ]
        ]
      },
      "properties": {
        "id": 44626,
        "name": "Isle Cove",
        "slug": "isle-cove",
        "city": "Foster City",
        "county": "San Mateo County",
        "state": "CA",
        "hidden": false,
        "center_latitude": 37.55010213480574,
        "center_longitude": -122.27723982016153
      }
    },
    {
      "type": "Feature",
      "geometry": {
        "type": "MultiPolygon",
        "coordinates": [
          [
            [
              [
                -122.25067,
                37.549173
              ],
              [
                -122.251914,
                37.547384
              ],
              [
                -122.252545,
                37.54587
              ],
              [
                -122.25659,
                37.545878
              ],
              [
                -122.256728,
                37.546624
              ],
              [
                -122.257156,
                37.547076
              ],
              [
                -122.2605991,
                37.5471059
              ],
              [
                -122.260604,
                37.548628
              ],
              [
                -122.264074,
                37.54863
              ],
              [
                -122.263533,
                37.551576
              ],
              [
                -122.2637,
                37.552601
              ],
              [
                -122.264285,
                37.55376
              ],
              [
                -122.260589,
                37.55454
              ],
              [
                -122.25885,
                37.555562
              ],
              [
                -122.252864,
                37.552189
              ],
              [
                -122.249367,
                37.550501
              ],
              [
                -122.250122,
                37.549941
              ],
              [
                -122.25067,
                37.549173
              ]
            ]
          ]
        ]
      },
      "properties": {
        "id": 44758,
        "name": "Marina Point",
        "slug": "marina-point",
        "city": "Foster City",
        "county": "San Mateo County",
        "state": "CA",
        "hidden": false,
        "center_latitude": 37.55068349974377,
        "center_longitude": -122.25682599977006
      }
    },
    {
      "type": "Feature",
      "geometry": {
        "type": "MultiPolygon",
        "coordinates": [
          [
            [
              [
                -122.258677,
                37.547044
              ],
              [
                -122.256991,
                37.547013
              ],
              [
                -122.256728,
                37.546624
              ],
              [
                -122.25659,
                37.545878
              ],
              [
                -122.252545,
                37.54587
              ],
              [
                -122.252658,
                37.54418
              ],
              [
                -122.250954,
                37.541643
              ],
              [
                -122.250927,
                37.540857
              ],
              [
                -122.251298,
                37.54039
              ],
              [
                -122.252162,
                37.540261
              ],
              [
                -122.253736,
                37.540964
              ],
              [
                -122.255343,
                37.54144
              ],
              [
                -122.256618,
                37.541519
              ],
              [
                -122.258256,
                37.541303
              ],
              [
                -122.259756,
                37.540595
              ],
              [
                -122.260328,
                37.53991
              ],
              [
                -122.260581,
                37.538742
              ],
              [
                -122.260755,
                37.537292
              ],
              [
                -122.260502,
                37.534808
              ],
              [
                -122.260613,
                37.533842
              ],
              [
                -122.260951,
                37.53347
              ],
              [
                -122.261509,
                37.533215
              ],
              [
                -122.262723,
                37.533256
              ],
              [
                -122.26469,
                37.534056
              ],
              [
                -122.26402,
                37.535175
              ],
              [
                -122.26337,
                37.535901
              ],
              [
                -122.265589,
                37.536581
              ],
              [
                -122.266105,
                37.537044
              ],
              [
                -122.266645,
                37.5378723
              ],
              [
                -122.2673471,
                37.5384322
              ],
              [
                -122.268082,
                37.538695
              ],
              [
                -122.2690228,
                37.5387653
              ],
              [
                -122.268993,
                37.5414152
              ],
              [
                -122.265691,
                37.541225
              ],
              [
                -122.264575,
                37.541547
              ],
              [
                -122.2640828,
                37.5421238
              ],
              [
                -122.263135,
                37.542635
              ],
              [
                -122.261299,
                37.5440473
              ],
              [
                -122.261388,
                37.544526
              ],
              [
                -122.262736,
                37.545799
              ],
              [
                -122.2627,
                37.546279
              ],
              [
                -122.262507,
                37.546505
              ],
              [
                -122.261381,
                37.547065
              ],
              [
                -122.258677,
                37.547044
              ]
            ]
          ]
        ]
      },
      "properties": {
        "id": 45609,
        "name": "Sea Colony",
        "slug": "sea-colony",
        "city": "Foster City",
        "county": "San Mateo County",
        "state": "CA",
        "hidden": false,
        "center_latitude": 37.54012295026399,
        "center_longitude": -122.25996999996548
      }
    },
    {
      "type": "Feature",
      "geometry": {
        "type": "MultiPolygon",
        "coordinates": [
          [
            [
              [
                -122.264285,
                37.55376
              ],
              [
                -122.2637,
                37.552601
              ],
              [
                -122.263533,
                37.551576
              ],
              [
                -122.264074,
                37.54863
              ],
              [
                -122.265135,
                37.548546
              ],
              [
                -122.265943,
                37.548293
              ],
              [
                -122.267781,
                37.547001
              ],
              [
                -122.269949,
                37.546397
              ],
              [
                -122.270488,
                37.5484654
              ],
              [
                -122.273254,
                37.552358
              ],
              [
                -122.273635,
                37.553935
              ],
              [
                -122.273381,
                37.554708
              ],
              [
                -122.272772,
                37.555156
              ],
              [
                -122.272114,
                37.555371
              ],
              [
                -122.270677,
                37.555414
              ],
              [
                -122.269328,
                37.555247
              ],
              [
                -122.265868,
                37.553934
              ],
              [
                -122.264285,
                37.55376
              ]
            ]
          ]
        ]
      },
      "properties": {
        "id": 44495,
        "name": "The Islands",
        "slug": "the-islands",
        "city": "Foster City",
        "county": "San Mateo County",
        "state": "CA",
        "hidden": false,
        "center_latitude": 37.55090550008882,
        "center_longitude": -122.26858400015144
      }
    },
    {
      "type": "Feature",
      "geometry": {
        "type": "MultiPolygon",
        "coordinates": [
          [
            [
              [
                -122.2570939,
                37.5625959
              ],
              [
                -122.256384,
                37.561152
              ],
              [
                -122.256014,
                37.559287
              ],
              [
                -122.256049,
                37.5584
              ],
              [
                -122.256505,
                37.556936
              ],
              [
                -122.256834,
                37.556226
              ],
              [
                -122.257147,
                37.556003
              ],
              [
                -122.25849,
                37.555719
              ],
              [
                -122.260589,
                37.55454
              ],
              [
                -122.263353,
                37.553921
              ],
              [
                -122.264931,
                37.553748
              ],
              [
                -122.265868,
                37.553934
              ],
              [
                -122.269328,
                37.555247
              ],
              [
                -122.270677,
                37.555414
              ],
              [
                -122.272114,
                37.555371
              ],
              [
                -122.272772,
                37.555156
              ],
              [
                -122.273381,
                37.554708
              ],
              [
                -122.273546,
                37.554359
              ],
              [
                -122.275001,
                37.553623
              ],
              [
                -122.276391,
                37.555029
              ],
              [
                -122.272016,
                37.557906
              ],
              [
                -122.2690838,
                37.5613489
              ],
              [
                -122.27325,
                37.5638439
              ],
              [
                -122.269895,
                37.566789
              ],
              [
                -122.2682763,
                37.5656678
              ],
              [
                -122.266054,
                37.565635
              ],
              [
                -122.265913,
                37.566037
              ],
              [
                -122.263978,
                37.565898
              ],
              [
                -122.261093,
                37.565351
              ],
              [
                -122.258597,
                37.564044
              ],
              [
                -122.2570939,
                37.5625959
              ]
            ]
          ]
        ]
      },
      "properties": {
        "id": 44702,
        "name": "Treasure Isle",
        "slug": "treasure-isle",
        "city": "Foster City",
        "county": "San Mateo County",
        "state": "CA",
        "hidden": false,
        "center_latitude": 37.56020600000696,
        "center_longitude": -122.26619850031051
      }
    },
    {
      "type": "Feature",
      "geometry": {
        "type": "MultiPolygon",
        "coordinates": [
          [
            [
              [
                -122.28406576,
                37.5754791
              ],
              [
                -122.283758,
                37.575042
              ],
              [
                -122.283068,
                37.57469
              ],
              [
                -122.281639,
                37.574475
              ],
              [
                -122.279527,
                37.573821
              ],
              [
                -122.279258,
                37.573573
              ],
              [
                -122.279031,
                37.571546
              ],
              [
                -122.278831,
                37.571397
              ],
              [
                -122.278037,
                37.57154
              ],
              [
                -122.276325,
                37.571396
              ],
              [
                -122.275462,
                37.571501
              ],
              [
                -122.274723,
                37.571198
              ],
              [
                -122.273792,
                37.570335
              ],
              [
                -122.273336,
                37.570225
              ],
              [
                -122.271755,
                37.570521
              ],
              [
                -122.270837,
                37.571021
              ],
              [
                -122.266549,
                37.572629
              ],
              [
                -122.264926,
                37.573507
              ],
              [
                -122.263843,
                37.57354
              ],
              [
                -122.262766,
                37.573858
              ],
              [
                -122.26236279,
                37.57374165
              ],
              [
                -122.272848,
                37.564165
              ],
              [
                -122.274364,
                37.563031
              ],
              [
                -122.27935657,
                37.55988407
              ],
              [
                -122.27935219,
                37.56449699
              ],
              [
                -122.28421974,
                37.56446648
              ],
              [
                -122.28425217,
                37.57019615
              ],
              [
                -122.28788757,
                37.57019234
              ],
              [
                -122.28788331,
                37.5747543
              ],
              [
                -122.287672,
                37.575059
              ],
              [
                -122.28772,
                37.575416
              ],
              [
                -122.287313,
                37.575103
              ],
              [
                -122.286505,
                37.5753
              ],
              [
                -122.286422,
                37.575564
              ],
              [
                -122.286091,
                37.575553
              ],
              [
                -122.285718,
                37.575256
              ],
              [
                -122.284966,
                37.575426
              ],
              [
                -122.28462,
                37.575822
              ],
              [
                -122.28406576,
                37.5754791
              ]
            ]
          ]
        ]
      },
      "properties": {
        "id": 45181,
        "name": "Vintage Park",
        "slug": "vintage-park",
        "city": "Foster City",
        "county": "San Mateo County",
        "state": "CA",
        "hidden": false,
        "center_latitude": 37.56785303698811,
        "center_longitude": -122.27512518308069
      }
    }
  ]
}