{
  "type": "FeatureCollection",
  "features": [
    {
      "type": "Feature",
      "geometry": {
        "type": "MultiPolygon",
        "coordinates": [
          [
            [
              [
                -122.335884,
                37.586779
              ],
              [
                -122.33604,
                37.586279
              ],
              [
                -122.344813,
                37.5800861
              ],
              [
                -122.350753,
                37.582561
              ],
              [
                -122.345029,
                37.586491
              ],
              [
                -122.3447539,
                37.5869658
              ],
              [
                -122.335884,
                37.586779
              ]
            ]
          ]
        ]
      },
      "properties": {
        "id": 178982,
        "name": "Burlingables",
        "slug": "burlingables-burlingame-ca",
        "city": "Burlingame",
        "county": "San Mateo County",
        "state": "CA",
        "hidden": true,
        "center_latitude": 37.58354355009479,
        "center_longitude": -122.34331849989883
      }
    },
    {
      "type": "Feature",
      "geometry": {
        "type": "MultiPolygon",
        "coordinates": [
          [
            [
              [
                -122.34419057,
                37.58699448
              ],
              [
                -122.3448028,
                37.58664463
              ],
              [
                -122.34855045,
                37.58408671
              ],
              [
                -122.35045402,
                37.58280775
              ],
              [
                -122.35503449,
                37.58468157
              ],
              [
                -122.35711652,
                37.58557387
              ],
              [
                -122.35985289,
                37.58670411
              ],
              [
                -122.36199441,
                37.5876559
              ],
              [
                -122.36312349,
                37.5880793
              ],
              [
                -122.3623781,
                37.58897377
              ],
              [
                -122.36141442,
                37.58893808
              ],
              [
                -122.36027227,
                37.58904516
              ],
              [
                -122.3597012,
                37.58911654
              ],
              [
                -122.35870183,
                37.58861685
              ],
              [
                -122.35738123,
                37.58804578
              ],
              [
                -122.3562034,
                37.58776025
              ],
              [
                -122.35502556,
                37.5875104
              ],
              [
                -122.35256282,
                37.58715349
              ],
              [
                -122.35102807,
                37.58715349
              ],
              [
                -122.34419057,
                37.58699448
              ]
            ]
          ]
        ]
      },
      "properties": {
        "id": 45680,
        "name": "Burlingame Gardens",
        "slug": "burlingame-gardens-burlingame-ca",
        "city": "Burlingame",
        "county": "San Mateo County",
        "state": "CA",
        "hidden": false,
        "center_latitude": 37.585962144087745,
        "center_longitude": -122.3536570310471
      }
    },
    {
      "type": "Feature",
      "geometry": {
        "type": "MultiPolygon",
        "coordinates": [
          [
            [
              [
                -122.37109851,
                37.58700355
              ],
              [
                -122.3755756,
                37.58965593
              ],
              [
                -122.37299661,
                37.59193085
              ],
              [
                -122.36325663,
                37.58783939
              ],
              [
                -122.36627582,
                37.58419857
              ],
              [
                -122.37109851,
                37.58700355
              ]
            ]
          ]
        ]
      },
      "properties": {
        "id": 555937,
        "name": "Burlingame Grove",
        "slug": "burlingame-grove-burlingame-ca",
        "city": "Burlingame",
        "county": "San Mateo County",
        "state": "CA",
        "hidden": false,
        "center_latitude": 37.58806470629439,
        "center_longitude": -122.36941611573964
      }
    },
    {
      "type": "Feature",
      "geometry": {
        "type": "MultiPolygon",
        "coordinates": [
          [
            [
              [
                -122.38677173,
                37.58264091
              ],
              [
                -122.3784178,
                37.57783949
              ],
              [
                -122.37983255,
                37.57730687
              ],
              [
                -122.38093448,
                37.57746943
              ],
              [
                -122.3800576,
                37.5762333
              ],
              [
                -122.38135586,
                37.57525877
              ],
              [
                -122.38132491,
                37.5745059
              ],
              [
                -122.38265729,
                37.57492914
              ],
              [
                -122.38345268,
                37.57461084
              ],
              [
                -122.38386194,
                37.5741507
              ],
              [
                -122.38358346,
                37.57320198
              ],
              [
                -122.38605175,
                37.57195346
              ],
              [
                -122.38570194,
                37.57083863
              ],
              [
                -122.38742276,
                37.57033082
              ],
              [
                -122.38791291,
                37.56909336
              ],
              [
                -122.38982271,
                37.5688267
              ],
              [
                -122.39018359,
                37.56968772
              ],
              [
                -122.39125574,
                37.56993653
              ],
              [
                -122.39090955,
                37.57048384
              ],
              [
                -122.39125301,
                37.57132783
              ],
              [
                -122.39342041,
                37.57008833
              ],
              [
                -122.39221197,
                37.56886396
              ],
              [
                -122.39314633,
                37.56827964
              ],
              [
                -122.39815357,
                37.57344788
              ],
              [
                -122.39719184,
                37.57411192
              ],
              [
                -122.39863306,
                37.57610995
              ],
              [
                -122.39328613,
                37.57830336
              ],
              [
                -122.3900453,
                37.58045915
              ],
              [
                -122.38875379,
                37.58081461
              ],
              [
                -122.38793111,
                37.58212781
              ],
              [
                -122.38677173,
                37.58264091
              ]
            ]
          ]
        ]
      },
      "properties": {
        "id": 44973,
        "name": "Burlingame Hills",
        "slug": "burlingame-hills-burlingame-ca",
        "city": "Burlingame",
        "county": "San Mateo County",
        "state": "CA",
        "hidden": false,
        "center_latitude": 37.575460274472135,
        "center_longitude": -122.38852543030433
      }
    },
    {
      "type": "Feature",
      "geometry": {
        "type": "MultiPolygon",
        "coordinates": [
          [
            [
              [
                -122.3431818,
                37.57458671
              ],
              [
                -122.34276772,
                37.57471275
              ],
              [
                -122.34185656,
                37.57427427
              ],
              [
                -122.35188768,
                37.56996325
              ],
              [
                -122.35277953,
                37.57100003
              ],
              [
                -122.35406859,
                37.57202972
              ],
              [
                -122.35274277,
                37.57282147
              ],
              [
                -122.35374964,
                37.57448757
              ],
              [
                -122.35293558,
                37.57477302
              ],
              [
                -122.3524336,
                37.57566063
              ],
              [
                -122.35264971,
                37.575676
              ],
              [
                -122.35243213,
                37.57637774
              ],
              [
                -122.35267878,
                37.57670399
              ],
              [
                -122.35256428,
                37.57705718
              ],
              [
                -122.3488925,
                37.57608577
              ],
              [
                -122.3431818,
                37.57458671
              ]
            ]
          ],
          [
            [
              [
                -122.35653295,
                37.57876742
              ],
              [
                -122.35625396,
                37.57879241
              ],
              [
                -122.35601809,
                37.5784958
              ],
              [
                -122.35685409,
                37.57730329
              ],
              [
                -122.35772793,
                37.57792099
              ],
              [
                -122.35822022,
                37.57747402
              ],
              [
                -122.35884087,
                37.5772369
              ],
              [
                -122.36076456,
                37.57910398
              ],
              [
                -122.36274162,
                37.5800538
              ],
              [
                -122.36304864,
                37.58003624
              ],
              [
                -122.36344401,
                37.58057461
              ],
              [
                -122.36154767,
                37.58161053
              ],
              [
                -122.35936451,
                37.58033787
              ],
              [
                -122.35653295,
                37.57876742
              ]
            ]
          ]
        ]
      },
      "properties": {
        "id": 44546,
        "name": "Burlingame Park",
        "slug": "burlingame-park-burlingame-ca",
        "city": "Burlingame",
        "county": "San Mateo County",
        "state": "CA",
        "hidden": false,
        "center_latitude": 37.5757868920515,
        "center_longitude": -122.35265028408332
      }
    },
    {
      "type": "Feature",
      "geometry": {
        "type": "MultiPolygon",
        "coordinates": [
          [
            [
              [
                -122.35625396,
                37.57879241
              ],
              [
                -122.35653295,
                37.57876742
              ],
              [
                -122.35803201,
                37.57962403
              ],
              [
                -122.35936451,
                37.58033787
              ],
              [
                -122.36154767,
                37.58161053
              ],
              [
                -122.3640699,
                37.58299062
              ],
              [
                -122.36630659,
                37.58425173
              ],
              [
                -122.36349406,
                37.58761748
              ],
              [
                -122.36312349,
                37.5880793
              ],
              [
                -122.36199441,
                37.5876559
              ],
              [
                -122.35985289,
                37.58670411
              ],
              [
                -122.35711652,
                37.58557387
              ],
              [
                -122.35503449,
                37.58468157
              ],
              [
                -122.35045402,
                37.58280775
              ],
              [
                -122.3514653,
                37.58200468
              ],
              [
                -122.35286323,
                37.58108264
              ],
              [
                -122.35580781,
                37.5790601
              ],
              [
                -122.35625396,
                37.57879241
              ]
            ]
          ]
        ]
      },
      "properties": {
        "id": 45508,
        "name": "Burlingame Terrace",
        "slug": "burlingame-terrace-burlingame-ca",
        "city": "Burlingame",
        "county": "San Mateo County",
        "state": "CA",
        "hidden": false,
        "center_latitude": 37.583423363797266,
        "center_longitude": -122.35838030595633
      }
    },
    {
      "type": "Feature",
      "geometry": {
        "type": "MultiPolygon",
        "coordinates": [
          [
            [
              [
                -122.37568166,
                37.5897007
              ],
              [
                -122.37784697,
                37.59093802
              ],
              [
                -122.38065474,
                37.59241328
              ],
              [
                -122.38327214,
                37.59457859
              ],
              [
                -122.38569771,
                37.59670744
              ],
              [
                -122.3848207,
                37.59735159
              ],
              [
                -122.38459037,
                37.59725906
              ],
              [
                -122.38377659,
                37.59657377
              ],
              [
                -122.38217759,
                37.59551729
              ],
              [
                -122.37920802,
                37.59420383
              ],
              [
                -122.37625273,
                37.59284754
              ],
              [
                -122.37325461,
                37.59160546
              ],
              [
                -122.37389707,
                37.59104866
              ],
              [
                -122.37472512,
                37.59043476
              ],
              [
                -122.37525336,
                37.59006357
              ],
              [
                -122.37568166,
                37.5897007
              ]
            ]
          ]
        ]
      },
      "properties": {
        "id": 45158,
        "name": "Burlingame Village",
        "slug": "burlingame-village-burlingame-ca",
        "city": "Burlingame",
        "county": "San Mateo County",
        "state": "CA",
        "hidden": false,
        "center_latitude": 37.593526142167775,
        "center_longitude": -122.37947616319434
      }
    },
    {
      "type": "Feature",
      "geometry": {
        "type": "MultiPolygon",
        "coordinates": [
          [
            [
              [
                -122.34458855,
                37.58029352
              ],
              [
                -122.3426018,
                37.57941702
              ],
              [
                -122.34286949,
                37.57929804
              ],
              [
                -122.34075772,
                37.57843549
              ],
              [
                -122.33869627,
                37.57753815
              ],
              [
                -122.34276772,
                37.57471275
              ],
              [
                -122.3431818,
                37.57458671
              ],
              [
                -122.34525193,
                37.57519347
              ],
              [
                -122.3488925,
                37.57608577
              ],
              [
                -122.35404578,
                37.57745839
              ],
              [
                -122.3543566,
                37.57758091
              ],
              [
                -122.35453674,
                37.57767028
              ],
              [
                -122.35601809,
                37.5784958
              ],
              [
                -122.35625396,
                37.57879241
              ],
              [
                -122.35580781,
                37.5790601
              ],
              [
                -122.35286323,
                37.58108264
              ],
              [
                -122.3514653,
                37.58200468
              ],
              [
                -122.35045402,
                37.58280775
              ],
              [
                -122.34849097,
                37.58200468
              ],
              [
                -122.34458855,
                37.58029352
              ]
            ]
          ]
        ]
      },
      "properties": {
        "id": 45077,
        "name": "Downtown Burlingame",
        "slug": "downtown-burlingame-burlingame-ca",
        "city": "Burlingame",
        "county": "San Mateo County",
        "state": "CA",
        "hidden": false,
        "center_latitude": 37.57869722859428,
        "center_longitude": -122.34747511738274
      }
    },
    {
      "type": "Feature",
      "geometry": {
        "type": "MultiPolygon",
        "coordinates": [
          [
            [
              [
                -122.38677173,
                37.58264091
              ],
              [
                -122.38637496,
                37.58289663
              ],
              [
                -122.38624647,
                37.58333921
              ],
              [
                -122.385861,
                37.58366757
              ],
              [
                -122.38474741,
                37.58429575
              ],
              [
                -122.38386225,
                37.58435286
              ],
              [
                -122.38317697,
                37.58559494
              ],
              [
                -122.38270583,
                37.58583764
              ],
              [
                -122.38247741,
                37.5864801
              ],
              [
                -122.38103545,
                37.58632305
              ],
              [
                -122.37999325,
                37.5867228
              ],
              [
                -122.3794079,
                37.58756513
              ],
              [
                -122.37723783,
                37.58782211
              ],
              [
                -122.37622418,
                37.58914985
              ],
              [
                -122.37575305,
                37.58942111
              ],
              [
                -122.37568166,
                37.5897007
              ],
              [
                -122.36154767,
                37.58161053
              ],
              [
                -122.36812385,
                37.57810679
              ],
              [
                -122.36830238,
                37.57820648
              ],
              [
                -122.36842702,
                37.57807478
              ],
              [
                -122.36879842,
                37.57828217
              ],
              [
                -122.36931971,
                37.57803998
              ],
              [
                -122.36976105,
                37.5786471
              ],
              [
                -122.36948035,
                37.57886426
              ],
              [
                -122.37133714,
                37.57990451
              ],
              [
                -122.37104821,
                37.58023099
              ],
              [
                -122.37145798,
                37.58046068
              ],
              [
                -122.37168981,
                37.58010219
              ],
              [
                -122.37181161,
                37.58017048
              ],
              [
                -122.37181284,
                37.58074476
              ],
              [
                -122.37198633,
                37.58084851
              ],
              [
                -122.37252048,
                37.5801687
              ],
              [
                -122.37333529,
                37.58007851
              ],
              [
                -122.37354247,
                37.57959538
              ],
              [
                -122.37394056,
                37.57944441
              ],
              [
                -122.37467682,
                37.57980334
              ],
              [
                -122.37499502,
                37.57954036
              ],
              [
                -122.37551921,
                37.57940135
              ],
              [
                -122.3755621,
                37.57917842
              ],
              [
                -122.37597074,
                37.57894935
              ],
              [
                -122.37586178,
                37.5787267
              ],
              [
                -122.3760469,
                37.57858105
              ],
              [
                -122.37634383,
                37.57862637
              ],
              [
                -122.37809671,
                37.57742927
              ],
              [
                -122.37833406,
                37.57779695
              ],
              [
                -122.38305556,
                37.58038891
              ],
              [
                -122.38334375,
                37.58069434
              ],
              [
                -122.3840058,
                37.58083928
              ],
              [
                -122.38451121,
                37.58137007
              ],
              [
                -122.38677173,
                37.58264091
              ]
            ]
          ]
        ]
      },
      "properties": {
        "id": 44571,
        "name": "Easton Addition",
        "slug": "easton-addition-burlingame-ca",
        "city": "Burlingame",
        "county": "San Mateo County",
        "state": "CA",
        "hidden": false,
        "center_latitude": 37.58356498363713,
        "center_longitude": -122.37415969951047
      }
    },
    {
      "type": "Feature",
      "geometry": {
        "type": "MultiPolygon",
        "coordinates": [
          [
            [
              [
                -122.33499457,
                37.58679467
              ],
              [
                -122.33083991,
                37.58299012
              ],
              [
                -122.33869627,
                37.57753815
              ],
              [
                -122.34075772,
                37.57843549
              ],
              [
                -122.34286949,
                37.57929804
              ],
              [
                -122.3426018,
                37.57941702
              ],
              [
                -122.34458855,
                37.58029352
              ],
              [
                -122.3426018,
                37.58161802
              ],
              [
                -122.33587982,
                37.58637694
              ],
              [
                -122.33525729,
                37.58679979
              ],
              [
                -122.33499457,
                37.58679467
              ]
            ]
          ]
        ]
      },
      "properties": {
        "id": 45463,
        "name": "Lyon Hoag",
        "slug": "lyon-hoag-burlingame-ca",
        "city": "Burlingame",
        "county": "San Mateo County",
        "state": "CA",
        "hidden": false,
        "center_latitude": 37.58216897321961,
        "center_longitude": -122.3377142302275
      }
    },
    {
      "type": "Feature",
      "geometry": {
        "type": "MultiPolygon",
        "coordinates": [
          [
            [
              [
                -122.38875379,
                37.58081461
              ],
              [
                -122.3900453,
                37.58045915
              ],
              [
                -122.39328613,
                37.57830336
              ],
              [
                -122.39555613,
                37.5776038
              ],
              [
                -122.39751205,
                37.57651876
              ],
              [
                -122.39794035,
                37.57651876
              ],
              [
                -122.39863306,
                37.57610995
              ],
              [
                -122.39969481,
                37.57766237
              ],
              [
                -122.4008979,
                37.57858039
              ],
              [
                -122.40067421,
                37.57873924
              ],
              [
                -122.40376468,
                37.58141582
              ],
              [
                -122.39934532,
                37.58437384
              ],
              [
                -122.39557035,
                37.5854353
              ],
              [
                -122.39095918,
                37.58898654
              ],
              [
                -122.38922954,
                37.58764116
              ],
              [
                -122.38832535,
                37.5874508
              ],
              [
                -122.38796843,
                37.58659419
              ],
              [
                -122.38794463,
                37.58516652
              ],
              [
                -122.38823017,
                37.58433371
              ],
              [
                -122.38818258,
                37.5839054
              ],
              [
                -122.38711182,
                37.58376263
              ],
              [
                -122.3867787,
                37.58338192
              ],
              [
                -122.38678519,
                37.58254669
              ],
              [
                -122.38703901,
                37.58238416
              ],
              [
                -122.38724894,
                37.58252332
              ],
              [
                -122.38767857,
                37.58235967
              ],
              [
                -122.38875379,
                37.58081461
              ]
            ]
          ]
        ]
      },
      "properties": {
        "id": 44853,
        "name": "Mills Estates",
        "slug": "mills-estates-burlingame-ca",
        "city": "Burlingame",
        "county": "San Mateo County",
        "state": "CA",
        "hidden": false,
        "center_latitude": 37.58254824655441,
        "center_longitude": -122.3952682088607
      }
    },
    {
      "type": "Feature",
      "geometry": {
        "type": "MultiPolygon",
        "coordinates": [
          [
            [
              [
                -122.37568166,
                37.5897007
              ],
              [
                -122.37575305,
                37.58942111
              ],
              [
                -122.37622418,
                37.58914985
              ],
              [
                -122.37723783,
                37.58782211
              ],
              [
                -122.3794079,
                37.58756513
              ],
              [
                -122.37999325,
                37.5867228
              ],
              [
                -122.38103545,
                37.58632305
              ],
              [
                -122.38247741,
                37.5864801
              ],
              [
                -122.38270583,
                37.58583764
              ],
              [
                -122.38317697,
                37.58559494
              ],
              [
                -122.38386225,
                37.58435286
              ],
              [
                -122.38474741,
                37.58429575
              ],
              [
                -122.385861,
                37.58366757
              ],
              [
                -122.38624647,
                37.58333921
              ],
              [
                -122.38637496,
                37.58289663
              ],
              [
                -122.38677173,
                37.58264091
              ],
              [
                -122.3867787,
                37.58338192
              ],
              [
                -122.38711182,
                37.58376263
              ],
              [
                -122.38818258,
                37.5839054
              ],
              [
                -122.38823017,
                37.58433371
              ],
              [
                -122.38794463,
                37.58516652
              ],
              [
                -122.38796843,
                37.58659419
              ],
              [
                -122.38832535,
                37.5874508
              ],
              [
                -122.38922954,
                37.58764116
              ],
              [
                -122.3899543,
                37.58824242
              ],
              [
                -122.38878495,
                37.59067172
              ],
              [
                -122.3883111,
                37.59118751
              ],
              [
                -122.39010435,
                37.59250071
              ],
              [
                -122.3885585,
                37.59359306
              ],
              [
                -122.38739928,
                37.59540453
              ],
              [
                -122.38569771,
                37.59670744
              ],
              [
                -122.38065474,
                37.59241328
              ],
              [
                -122.37568166,
                37.5897007
              ]
            ]
          ]
        ]
      },
      "properties": {
        "id": 45839,
        "name": "Ray Park",
        "slug": "ray-park-burlingame-ca",
        "city": "Burlingame",
        "county": "San Mateo County",
        "state": "CA",
        "hidden": false,
        "center_latitude": 37.589674175422914,
        "center_longitude": -122.38289300510809
      }
    }
  ]
}