{
  "type": "FeatureCollection",
  "features": [
    {
      "type": "Feature",
      "geometry": {
        "type": "MultiPolygon",
        "coordinates": [
          [
            [
              [
                -122.39192974,
                37.6049219
              ],
              [
                -122.38960851,
                37.60637267
              ],
              [
                -122.38847012,
                37.60620834
              ],
              [
                -122.38752785,
                37.60675756
              ],
              [
                -122.38377962,
                37.60434908
              ],
              [
                -122.3789937,
                37.60723482
              ],
              [
                -122.37748756,
                37.60663115
              ],
              [
                -122.37784428,
                37.60608584
              ],
              [
                -122.37332915,
                37.60421181
              ],
              [
                -122.37461047,
                37.60355408
              ],
              [
                -122.37811151,
                37.60148126
              ],
              [
                -122.37872296,
                37.60106418
              ],
              [
                -122.38455731,
                37.59759793
              ],
              [
                -122.384659,
                37.59752074
              ],
              [
                -122.3848207,
                37.59735159
              ],
              [
                -122.38569771,
                37.59670744
              ],
              [
                -122.38601166,
                37.59702138
              ],
              [
                -122.38658273,
                37.59764004
              ],
              [
                -122.38749902,
                37.5985255
              ],
              [
                -122.38608691,
                37.59923428
              ],
              [
                -122.39029856,
                37.60335075
              ],
              [
                -122.39192974,
                37.6049219
              ]
            ]
          ]
        ]
      },
      "properties": {
        "id": 45669,
        "name": "Bayside Manor",
        "slug": "bayside-manor-millbrae-ca",
        "city": "Millbrae",
        "county": "San Mateo County",
        "state": "CA",
        "hidden": false,
        "center_latitude": 37.60197112646637,
        "center_longitude": -122.38262944799061
      }
    },
    {
      "type": "Feature",
      "geometry": {
        "type": "MultiPolygon",
        "coordinates": [
          [
            [
              [
                -122.4058868,
                37.61506108
              ],
              [
                -122.40645263,
                37.61469792
              ],
              [
                -122.40565935,
                37.61390262
              ],
              [
                -122.40572049,
                37.61375488
              ],
              [
                -122.40527606,
                37.61361655
              ],
              [
                -122.40537618,
                37.61341113
              ],
              [
                -122.40581915,
                37.61355302
              ],
              [
                -122.40625719,
                37.61265745
              ],
              [
                -122.40386018,
                37.61014515
              ],
              [
                -122.4039159,
                37.60973401
              ],
              [
                -122.40702939,
                37.60802726
              ],
              [
                -122.40757482,
                37.60784796
              ],
              [
                -122.40913303,
                37.60796842
              ],
              [
                -122.40925701,
                37.60908782
              ],
              [
                -122.40690729,
                37.61194522
              ],
              [
                -122.40602535,
                37.61222698
              ],
              [
                -122.40926945,
                37.61404822
              ],
              [
                -122.40808585,
                37.61467891
              ],
              [
                -122.41011315,
                37.61704886
              ],
              [
                -122.40886357,
                37.61773188
              ],
              [
                -122.40620488,
                37.61511643
              ],
              [
                -122.4058868,
                37.61506108
              ]
            ]
          ]
        ]
      },
      "properties": {
        "id": 45765,
        "name": "Capuchino Village",
        "slug": "capuchino-village-millbrae-ca",
        "city": "Millbrae",
        "county": "San Mateo County",
        "state": "CA",
        "hidden": false,
        "center_latitude": 37.612789917171,
        "center_longitude": -122.40698666470277
      }
    },
    {
      "type": "Feature",
      "geometry": {
        "type": "MultiPolygon",
        "coordinates": [
          [
            [
              [
                -122.40188,
                37.610785
              ],
              [
                -122.400484,
                37.611518
              ],
              [
                -122.3997109,
                37.6106301
              ],
              [
                -122.4000623,
                37.6103989
              ],
              [
                -122.3996954,
                37.610224
              ],
              [
                -122.398494,
                37.6084672
              ],
              [
                -122.3968908,
                37.609861
              ],
              [
                -122.3861248,
                37.5992631
              ],
              [
                -122.3893354,
                37.5974262
              ],
              [
                -122.391017,
                37.599238
              ],
              [
                -122.395279,
                37.602647
              ],
              [
                -122.3976,
                37.60391
              ],
              [
                -122.3994914,
                37.6058206
              ],
              [
                -122.3999829,
                37.6059895
              ],
              [
                -122.4008097,
                37.6068073
              ],
              [
                -122.3997443,
                37.6073816
              ],
              [
                -122.402414,
                37.610034
              ],
              [
                -122.401561,
                37.610456
              ],
              [
                -122.40188,
                37.610785
              ]
            ]
          ]
        ]
      },
      "properties": {
        "id": 178530,
        "name": "Downtown Millbrea",
        "slug": "downtown-millbrea-millbrae-ca",
        "city": "Millbrae",
        "county": "San Mateo County",
        "state": "CA",
        "hidden": false,
        "center_latitude": 37.60447210015735,
        "center_longitude": -122.39426939976298
      }
    },
    {
      "type": "Feature",
      "geometry": {
        "type": "MultiPolygon",
        "coordinates": [
          [
            [
              [
                -122.39783927,
                37.60667555
              ],
              [
                -122.39929956,
                37.60567063
              ],
              [
                -122.39906796,
                37.60537875
              ],
              [
                -122.4042076,
                37.60244725
              ],
              [
                -122.40443364,
                37.60273041
              ],
              [
                -122.40647046,
                37.60503372
              ],
              [
                -122.40464304,
                37.60602358
              ],
              [
                -122.4019019,
                37.60745126
              ],
              [
                -122.39967915,
                37.60856816
              ],
              [
                -122.39889575,
                37.60774631
              ],
              [
                -122.39783927,
                37.60667555
              ]
            ]
          ]
        ]
      },
      "properties": {
        "id": 44819,
        "name": "Green Hills",
        "slug": "green-hills-millbrae-ca",
        "city": "Millbrae",
        "county": "San Mateo County",
        "state": "CA",
        "hidden": false,
        "center_latitude": 37.605507706365614,
        "center_longitude": -122.402154865005
      }
    },
    {
      "type": "Feature",
      "geometry": {
        "type": "MultiPolygon",
        "coordinates": [
          [
            [
              [
                -122.41174577,
                37.58713776
              ],
              [
                -122.41425177,
                37.59139757
              ],
              [
                -122.40470014,
                37.59683132
              ],
              [
                -122.40481912,
                37.59700979
              ],
              [
                -122.39842432,
                37.60057898
              ],
              [
                -122.39729407,
                37.59932976
              ],
              [
                -122.39562845,
                37.60147127
              ],
              [
                -122.39292806,
                37.60316347
              ],
              [
                -122.39221035,
                37.60273715
              ],
              [
                -122.38956915,
                37.60055994
              ],
              [
                -122.38749902,
                37.5985255
              ],
              [
                -122.39423052,
                37.59462081
              ],
              [
                -122.39518706,
                37.59454942
              ],
              [
                -122.39758556,
                37.59364999
              ],
              [
                -122.3981709,
                37.59269344
              ],
              [
                -122.40084066,
                37.59283621
              ],
              [
                -122.40170619,
                37.59242902
              ],
              [
                -122.40221182,
                37.59180442
              ],
              [
                -122.40349078,
                37.59171519
              ],
              [
                -122.40375847,
                37.59153673
              ],
              [
                -122.40506718,
                37.5896629
              ],
              [
                -122.40503942,
                37.58876466
              ],
              [
                -122.40542013,
                37.58821738
              ],
              [
                -122.4059912,
                37.58805082
              ],
              [
                -122.40668124,
                37.58820548
              ],
              [
                -122.40757354,
                37.58790805
              ],
              [
                -122.40890604,
                37.58807461
              ],
              [
                -122.40966747,
                37.58838394
              ],
              [
                -122.41174577,
                37.58713776
              ]
            ]
          ]
        ]
      },
      "properties": {
        "id": 45595,
        "name": "Highlands",
        "slug": "highlands-millbrae-ca",
        "city": "Millbrae",
        "county": "San Mateo County",
        "state": "CA",
        "hidden": false,
        "center_latitude": 37.59515061321028,
        "center_longitude": -122.40087539413409
      }
    },
    {
      "type": "Feature",
      "geometry": {
        "type": "MultiPolygon",
        "coordinates": [
          [
            [
              [
                -122.38569771,
                37.59670744
              ],
              [
                -122.38739928,
                37.59540453
              ],
              [
                -122.3885585,
                37.59359306
              ],
              [
                -122.39010435,
                37.59250071
              ],
              [
                -122.3883111,
                37.59118751
              ],
              [
                -122.38878495,
                37.59067172
              ],
              [
                -122.3899543,
                37.58824242
              ],
              [
                -122.39095918,
                37.58898654
              ],
              [
                -122.39557035,
                37.5854353
              ],
              [
                -122.39934532,
                37.58437384
              ],
              [
                -122.40376468,
                37.58141582
              ],
              [
                -122.40874773,
                37.58618361
              ],
              [
                -122.40931871,
                37.58584953
              ],
              [
                -122.41174577,
                37.58713776
              ],
              [
                -122.40966747,
                37.58838394
              ],
              [
                -122.40890604,
                37.58807461
              ],
              [
                -122.40757354,
                37.58790805
              ],
              [
                -122.40668124,
                37.58820548
              ],
              [
                -122.4059912,
                37.58805082
              ],
              [
                -122.40542013,
                37.58821738
              ],
              [
                -122.40503942,
                37.58876466
              ],
              [
                -122.40506718,
                37.5896629
              ],
              [
                -122.40375847,
                37.59153673
              ],
              [
                -122.40349078,
                37.59171519
              ],
              [
                -122.40221182,
                37.59180442
              ],
              [
                -122.40170619,
                37.59242902
              ],
              [
                -122.40084066,
                37.59283621
              ],
              [
                -122.3981709,
                37.59269344
              ],
              [
                -122.39758556,
                37.59364999
              ],
              [
                -122.39518706,
                37.59454942
              ],
              [
                -122.39423052,
                37.59462081
              ],
              [
                -122.38749902,
                37.5985255
              ],
              [
                -122.38569771,
                37.59670744
              ]
            ]
          ]
        ]
      },
      "properties": {
        "id": 44955,
        "name": "Mills Estates",
        "slug": "mills-estates-millbrae-ca",
        "city": "Millbrae",
        "county": "San Mateo County",
        "state": "CA",
        "hidden": false,
        "center_latitude": 37.58997066121708,
        "center_longitude": -122.3987217408656
      }
    },
    {
      "type": "Feature",
      "geometry": {
        "type": "MultiPolygon",
        "coordinates": [
          [
            [
              [
                -122.41589,
                37.606979
              ],
              [
                -122.414036,
                37.604417
              ],
              [
                -122.41439349,
                37.60426173
              ],
              [
                -122.41425864,
                37.60421678
              ],
              [
                -122.41413728,
                37.60325706
              ],
              [
                -122.41349483,
                37.60270027
              ],
              [
                -122.41339489,
                37.60224341
              ],
              [
                -122.41356622,
                37.60167234
              ],
              [
                -122.41353095,
                37.60082714
              ],
              [
                -122.41230207,
                37.5998552
              ],
              [
                -122.411511,
                37.600009
              ],
              [
                -122.411528,
                37.599424
              ],
              [
                -122.41309,
                37.599152
              ],
              [
                -122.413313,
                37.59847
              ],
              [
                -122.414408,
                37.597874
              ],
              [
                -122.416395,
                37.598351
              ],
              [
                -122.416978,
                37.59738
              ],
              [
                -122.417721,
                37.597465
              ],
              [
                -122.41817077,
                37.59688962
              ],
              [
                -122.419337,
                37.596105
              ],
              [
                -122.423474,
                37.599561
              ],
              [
                -122.419971,
                37.601851
              ],
              [
                -122.42492732,
                37.60606586
              ],
              [
                -122.421184,
                37.608281
              ],
              [
                -122.420814,
                37.608917
              ],
              [
                -122.420017,
                37.609681
              ],
              [
                -122.419159,
                37.60989
              ],
              [
                -122.418561,
                37.609882
              ],
              [
                -122.417996,
                37.609645
              ],
              [
                -122.417734,
                37.609806
              ],
              [
                -122.41589,
                37.606979
              ]
            ]
          ]
        ]
      },
      "properties": {
        "id": 179447,
        "name": "Millbrae Meadows",
        "slug": "millbrae-meadows-millbrae-ca",
        "city": "Millbrae",
        "county": "San Mateo County",
        "state": "CA",
        "hidden": false,
        "center_latitude": 37.603003000038484,
        "center_longitude": -122.41821916108537
      }
    },
    {
      "type": "Feature",
      "geometry": {
        "type": "MultiPolygon",
        "coordinates": [
          [
            [
              [
                -122.39967915,
                37.60856816
              ],
              [
                -122.4019019,
                37.60745126
              ],
              [
                -122.40464304,
                37.60602358
              ],
              [
                -122.40647046,
                37.60503372
              ],
              [
                -122.40837245,
                37.60728826
              ],
              [
                -122.40757482,
                37.60784796
              ],
              [
                -122.40716014,
                37.60805194
              ],
              [
                -122.40702939,
                37.60802726
              ],
              [
                -122.40423066,
                37.60946709
              ],
              [
                -122.40421333,
                37.60956594
              ],
              [
                -122.4039159,
                37.60973401
              ],
              [
                -122.40386018,
                37.61014515
              ],
              [
                -122.40594678,
                37.61224042
              ],
              [
                -122.40588101,
                37.61237538
              ],
              [
                -122.40602586,
                37.61242006
              ],
              [
                -122.40625719,
                37.61265745
              ],
              [
                -122.40581915,
                37.61355302
              ],
              [
                -122.40537618,
                37.61341113
              ],
              [
                -122.40527606,
                37.61361655
              ],
              [
                -122.40572049,
                37.61375488
              ],
              [
                -122.40565935,
                37.61390262
              ],
              [
                -122.40645263,
                37.61469792
              ],
              [
                -122.4058868,
                37.61506108
              ],
              [
                -122.40177256,
                37.61093582
              ],
              [
                -122.40162918,
                37.61081323
              ],
              [
                -122.40165116,
                37.61061594
              ],
              [
                -122.40122286,
                37.61018764
              ],
              [
                -122.39967915,
                37.60856816
              ]
            ]
          ]
        ]
      },
      "properties": {
        "id": 45771,
        "name": "Millwood",
        "slug": "millwood-millbrae-ca",
        "city": "Millbrae",
        "county": "San Mateo County",
        "state": "CA",
        "hidden": false,
        "center_latitude": 37.61004740266557,
        "center_longitude": -122.40402579930117
      }
    },
    {
      "type": "Feature",
      "geometry": {
        "type": "MultiPolygon",
        "coordinates": [
          [
            [
              [
                -122.40443364,
                37.60273041
              ],
              [
                -122.4042076,
                37.60244725
              ],
              [
                -122.39906796,
                37.60537875
              ],
              [
                -122.39929956,
                37.60567063
              ],
              [
                -122.39783927,
                37.60667555
              ],
              [
                -122.39678279,
                37.60594744
              ],
              [
                -122.39624027,
                37.60550486
              ],
              [
                -122.39551215,
                37.60499089
              ],
              [
                -122.39442712,
                37.60412001
              ],
              [
                -122.3936419,
                37.60367743
              ],
              [
                -122.39292806,
                37.60316347
              ],
              [
                -122.39389888,
                37.60263523
              ],
              [
                -122.39465555,
                37.60216409
              ],
              [
                -122.3951124,
                37.60254957
              ],
              [
                -122.39565492,
                37.60287793
              ],
              [
                -122.39631165,
                37.60314919
              ],
              [
                -122.39736813,
                37.6025924
              ],
              [
                -122.39805342,
                37.60314919
              ],
              [
                -122.3998285,
                37.60209747
              ],
              [
                -122.4007089,
                37.60159778
              ],
              [
                -122.40235072,
                37.60069359
              ],
              [
                -122.40437327,
                37.59962283
              ],
              [
                -122.40568197,
                37.5988852
              ],
              [
                -122.40611721,
                37.59879993
              ],
              [
                -122.40645034,
                37.59904978
              ],
              [
                -122.40695002,
                37.59907357
              ],
              [
                -122.40752109,
                37.59918065
              ],
              [
                -122.40844908,
                37.59931152
              ],
              [
                -122.40862754,
                37.59988259
              ],
              [
                -122.40883089,
                37.60014155
              ],
              [
                -122.4084121,
                37.6005413
              ],
              [
                -122.40443364,
                37.60273041
              ]
            ]
          ]
        ]
      },
      "properties": {
        "id": 45695,
        "name": "Meadow Glen",
        "slug": "meadow-glen-millbrae-ca",
        "city": "Millbrae",
        "county": "San Mateo County",
        "state": "CA",
        "hidden": false,
        "center_latitude": 37.60273774230302,
        "center_longitude": -122.40087947390856
      }
    },
    {
      "type": "Feature",
      "geometry": {
        "type": "MultiPolygon",
        "coordinates": [
          [
            [
              [
                -122.395036,
                37.602449
              ],
              [
                -122.403544,
                37.59766
              ],
              [
                -122.404452,
                37.597987
              ],
              [
                -122.404645,
                37.597552
              ],
              [
                -122.404305,
                37.597078
              ],
              [
                -122.413132,
                37.592028
              ],
              [
                -122.413221,
                37.592106
              ],
              [
                -122.414615,
                37.591329
              ],
              [
                -122.416346,
                37.593087
              ],
              [
                -122.41009,
                37.596744
              ],
              [
                -122.410019,
                37.597217
              ],
              [
                -122.410252,
                37.598575
              ],
              [
                -122.409082,
                37.598966
              ],
              [
                -122.406373,
                37.598767
              ],
              [
                -122.406395,
                37.598905
              ],
              [
                -122.3976,
                37.60391
              ],
              [
                -122.395036,
                37.602449
              ]
            ]
          ]
        ]
      },
      "properties": {
        "id": 179423,
        "name": "Telescope Hills",
        "slug": "telescope-hills-millbrae-ca",
        "city": "Millbrae",
        "county": "San Mateo County",
        "state": "CA",
        "hidden": false,
        "center_latitude": 37.59761949999,
        "center_longitude": -122.40569100018945
      }
    },
    {
      "type": "Feature",
      "geometry": {
        "type": "MultiPolygon",
        "coordinates": [
          [
            [
              [
                -122.41921039,
                37.59619843
              ],
              [
                -122.41817077,
                37.59688962
              ],
              [
                -122.417721,
                37.597465
              ],
              [
                -122.416978,
                37.59738
              ],
              [
                -122.416395,
                37.598351
              ],
              [
                -122.414408,
                37.597874
              ],
              [
                -122.413313,
                37.59847
              ],
              [
                -122.41309,
                37.599152
              ],
              [
                -122.411528,
                37.599424
              ],
              [
                -122.411511,
                37.600009
              ],
              [
                -122.41181038,
                37.59995554
              ],
              [
                -122.41166136,
                37.59998966
              ],
              [
                -122.41042404,
                37.60018002
              ],
              [
                -122.40934138,
                37.59975172
              ],
              [
                -122.40862754,
                37.59988259
              ],
              [
                -122.40844908,
                37.59931152
              ],
              [
                -122.40645034,
                37.59904978
              ],
              [
                -122.40611721,
                37.59879993
              ],
              [
                -122.40645034,
                37.59821697
              ],
              [
                -122.40865134,
                37.59839542
              ],
              [
                -122.40866324,
                37.59774107
              ],
              [
                -122.40827062,
                37.59720569
              ],
              [
                -122.40825873,
                37.59695585
              ],
              [
                -122.40862754,
                37.59600407
              ],
              [
                -122.40891308,
                37.59582561
              ],
              [
                -122.4096983,
                37.59661083
              ],
              [
                -122.41036455,
                37.59661083
              ],
              [
                -122.41131633,
                37.59615873
              ],
              [
                -122.41598891,
                37.5931275
              ],
              [
                -122.41921039,
                37.59619843
              ]
            ]
          ]
        ]
      },
      "properties": {
        "id": 44762,
        "name": "Glenview Highlands",
        "slug": "glenview-highlands-millbrae-ca",
        "city": "Millbrae",
        "county": "San Mateo County",
        "state": "CA",
        "hidden": false,
        "center_latitude": 37.59665375761489,
        "center_longitude": -122.41266380028111
      }
    },
    {
      "type": "Feature",
      "geometry": {
        "type": "MultiPolygon",
        "coordinates": [
          [
            [
              [
                -122.40837245,
                37.60728826
              ],
              [
                -122.41205764,
                37.60537081
              ],
              [
                -122.41385413,
                37.60438334
              ],
              [
                -122.41425864,
                37.60421678
              ],
              [
                -122.41439349,
                37.60426173
              ],
              [
                -122.414036,
                37.604417
              ],
              [
                -122.414702,
                37.605335
              ],
              [
                -122.415456,
                37.606321
              ],
              [
                -122.41589,
                37.606979
              ],
              [
                -122.416338,
                37.60761
              ],
              [
                -122.417287,
                37.609187
              ],
              [
                -122.41773288,
                37.60980444
              ],
              [
                -122.41316898,
                37.61210114
              ],
              [
                -122.41298653,
                37.61218106
              ],
              [
                -122.41284583,
                37.61188062
              ],
              [
                -122.41236994,
                37.61126196
              ],
              [
                -122.41191784,
                37.61076228
              ],
              [
                -122.41148954,
                37.61042915
              ],
              [
                -122.41098985,
                37.61023879
              ],
              [
                -122.4103474,
                37.61009603
              ],
              [
                -122.40953838,
                37.61002464
              ],
              [
                -122.40906249,
                37.61000085
              ],
              [
                -122.4085854,
                37.60978799
              ],
              [
                -122.40899389,
                37.60927841
              ],
              [
                -122.40920006,
                37.60911651
              ],
              [
                -122.40925701,
                37.60908782
              ],
              [
                -122.40913303,
                37.60796842
              ],
              [
                -122.40757482,
                37.60784796
              ],
              [
                -122.40837245,
                37.60728826
              ]
            ]
          ]
        ]
      },
      "properties": {
        "id": 45235,
        "name": "Capuchino",
        "slug": "capuchino-millbrae-ca",
        "city": "Millbrae",
        "county": "San Mateo County",
        "state": "CA",
        "hidden": false,
        "center_latitude": 37.608198916346964,
        "center_longitude": -122.41265384631046
      }
    },
    {
      "type": "Feature",
      "geometry": {
        "type": "MultiPolygon",
        "coordinates": [
          [
            [
              [
                -122.4085854,
                37.60978799
              ],
              [
                -122.40906249,
                37.61000085
              ],
              [
                -122.40953838,
                37.61002464
              ],
              [
                -122.4103474,
                37.61009603
              ],
              [
                -122.41098985,
                37.61023879
              ],
              [
                -122.41148954,
                37.61042915
              ],
              [
                -122.41191784,
                37.61076228
              ],
              [
                -122.41236994,
                37.61126196
              ],
              [
                -122.41284583,
                37.61188062
              ],
              [
                -122.41298653,
                37.61218106
              ],
              [
                -122.41086651,
                37.61327865
              ],
              [
                -122.41036112,
                37.61348747
              ],
              [
                -122.40926945,
                37.61404822
              ],
              [
                -122.40602535,
                37.61222698
              ],
              [
                -122.40648966,
                37.61216999
              ],
              [
                -122.40660526,
                37.61213766
              ],
              [
                -122.4067614,
                37.61206045
              ],
              [
                -122.40690729,
                37.61194522
              ],
              [
                -122.4085854,
                37.60978799
              ]
            ]
          ]
        ]
      },
      "properties": {
        "id": 44721,
        "name": "Lomita Hills",
        "slug": "lomita-hills-millbrae-ca",
        "city": "Millbrae",
        "county": "San Mateo County",
        "state": "CA",
        "hidden": false,
        "center_latitude": 37.61191810583597,
        "center_longitude": -122.40950594139602
      }
    }
  ]
}