{"type":"FeatureCollection","features":[{"type":"Feature","properties":{"name":"District 1"},"geometry":{"type":"MultiPolygon","coordinates":[[[[-122.463581,37.788806],[-122.470912,37.787221],[-122.474799,37.786911],[-122.480683,37.786992],[-122.484553,37.787646],[-122.483887,37.789154],[-122.486032,37.790764],[-122.487061,37.789697],[-122.490048,37.78946],[-122.493262,37.787682],[-122.492375,37.781677],[-122.506188,37.781032],[-122.509879,37.780627],[-122.509295,37.776291],[-122.511473,37.775892],[-122.511124,37.771323],[-122.465332,37.773423],[-122.454683,37.774755],[-122.446471,37.775802],[-122.447679,37.78151],[-122.445826,37.782512],[-122.446793,37.787262],[-122.459221,37.785677],[-122.45928,37.786914],[-122.463618,37.786722],[-122.463581,37.788806]]]]}},{"type":"Feature","properties":{"name":"District 2"},"geometry":{"type":"MultiPolygon","coordinates":[[[[-122.45779,37.766015],[-122.46538,37.766016],[-122.508335,37.764107],[-122.512425,37.763589],[-122.509713,37.749084],[-122.508541,37.735402],[-122.502558,37.735557],[-122.496564,37.733856],[-122.493784,37.733989],[-122.493979,37.736645],[-122.489971,37.737957],[-122.488518,37.737002],[-122.485767,37.736757],[-122.47539,37.73745],[-122.470817,37.737648],[-122.470863,37.743262],[-122.468619,37.74336],[-122.468858,37.746428],[-122.466722,37.746477],[-122.465649,37.748707],[-122.465018,37.752874],[-122.463361,37.753039],[-122.463911,37.760391],[-122.461151,37.759038],[-122.460292,37.76044],[-122.458517,37.760999],[-122.457536,37.763566],[-122.45779,37.766015]]]]}},{"type":"Feature","properties":{"name":"District 3"},"geometry":{"type":"MultiPolygon","coordinates":[[[[-122.47539,37.73745],[-122.485767,37.736757],[-122.488518,37.737002],[-122.489971,37.737957],[-122.493979,37.736645],[-122.493784,37.733989],[-122.496564,37.733856],[-122.498107,37.732268],[-122.497354,37.729668],[-122.495688,37.729059],[-122.493529,37.729594],[-122.492028,37.728815],[-122.48889,37.730257],[-122.485722,37.729292],[-122.484053,37.727412],[-122.485092,37.724134],[-122.485275,37.714823],[-122.475907,37.714398],[-122.471355,37.712802],[-122.471319,37.708305],[-122.468939,37.708232],[-122.465994,37.710154],[-122.464176,37.710548],[-122.458307,37.7106],[-122.455028,37.711317],[-122.450235,37.715132],[-122.448686,37.717596],[-122.447878,37.723005],[-122.451596,37.723033],[-122.462199,37.725293],[-122.462394,37.721694],[-122.47244,37.721603],[-122.471755,37.734822],[-122.475189,37.734762],[-122.47539,37.73745]]]]}},{"type":"Feature","properties":{"name":"District 4"},"geometry":{"type":"MultiPolygon","coordinates":[[[[-122.436551,37.731294],[-122.437884,37.733092],[-122.445253,37.733477],[-122.445304,37.736945],[-122.442873,37.738413],[-122.437394,37.738326],[-122.435622,37.740679],[-122.436472,37.742886],[-122.439518,37.744795],[-122.441395,37.747209],[-122.444847,37.746945],[-122.445035,37.748367],[-122.446924,37.749962],[-122.449423,37.750412],[-122.446777,37.753249],[-122.447943,37.755532],[-122.445348,37.755619],[-122.448322,37.756856],[-122.454172,37.756507],[-122.452298,37.758277],[-122.452885,37.760315],[-122.455122,37.760148],[-122.457536,37.763566],[-122.458517,37.760999],[-122.460292,37.76044],[-122.461151,37.759038],[-122.463911,37.760391],[-122.463361,37.753039],[-122.465018,37.752874],[-122.465649,37.748707],[-122.466722,37.746477],[-122.468858,37.746428],[-122.468619,37.74336],[-122.470863,37.743262],[-122.470817,37.737648],[-122.47539,37.73745],[-122.475189,37.734762],[-122.471755,37.734822],[-122.47244,37.721603],[-122.462394,37.721694],[-122.462199,37.725293],[-122.451596,37.723033],[-122.447878,37.723005],[-122.446308,37.725978],[-122.443791,37.728233],[-122.436551,37.731294]]]]}},{"type":"Feature","properties":{"name":"District 5"},"geometry":{"type":"MultiPolygon","coordinates":[[[[-122.42325,37.771937],[-122.426108,37.76963],[-122.435794,37.769058],[-122.43689,37.770289],[-122.437564,37.773604],[-122.453995,37.771517],[-122.452947,37.766374],[-122.45779,37.766015],[-122.457536,37.763566],[-122.455122,37.760148],[-122.452885,37.760315],[-122.452298,37.758277],[-122.454172,37.756507],[-122.448322,37.756856],[-122.445348,37.755619],[-122.447943,37.755532],[-122.446777,37.753249],[-122.449423,37.750412],[-122.446924,37.749962],[-122.445035,37.748367],[-122.444847,37.746945],[-122.441395,37.747209],[-122.439518,37.744795],[-122.436472,37.742886],[-122.435622,37.740679],[-122.437394,37.738326],[-122.442873,37.738413],[-122.445304,37.736945],[-122.445253,37.733477],[-122.437884,37.733092],[-122.436551,37.731294],[-122.433685,37.731853],[-122.433979,37.732203],[-122.429661,37.734271],[-122.425111,37.737551],[-122.422153,37.745307],[-122.422528,37.748795],[-122.421284,37.74885],[-122.421595,37.752047],[-122.420964,37.755295],[-122.422444,37.770715],[-122.42325,37.771937]]]]}},{"type":"Feature","properties":{"name":"District 6"},"geometry":{"type":"MultiPolygon","coordinates":[[[[-122.420714,37.774078],[-122.421892,37.77989],[-122.423541,37.779674],[-122.425047,37.78713],[-122.423404,37.787339],[-122.423975,37.79016],[-122.446793,37.787262],[-122.445826,37.782512],[-122.447679,37.78151],[-122.446471,37.775802],[-122.454683,37.774755],[-122.453995,37.771517],[-122.437564,37.773604],[-122.43689,37.770289],[-122.435794,37.769058],[-122.426108,37.76963],[-122.42325,37.771937],[-122.420714,37.774078]]]]}},{"type":"Feature","properties":{"name":"District 7"},"geometry":{"type":"MultiPolygon","coordinates":[[[[-122.426561,37.807941],[-122.428237,37.808406],[-122.432079,37.807223],[-122.433851,37.805719],[-122.435767,37.807567],[-122.440098,37.807022],[-122.440278,37.808222],[-122.447181,37.807477],[-122.448492,37.806088],[-122.448241,37.804478],[-122.44946,37.802454],[-122.44782,37.801633],[-122.4463,37.791879],[-122.449426,37.791637],[-122.463581,37.788806],[-122.463618,37.786722],[-122.45928,37.786914],[-122.459221,37.785677],[-122.446793,37.787262],[-122.423975,37.79016],[-122.42242,37.790358],[-122.425382,37.804971],[-122.426561,37.807941]]]]}},{"type":"Feature","properties":{"name":"District 8"},"geometry":{"type":"MultiPolygon","coordinates":[[[[-122.393079,37.795728],[-122.394127,37.796863],[-122.393204,37.798251],[-122.395455,37.797549],[-122.398384,37.800673],[-122.396156,37.80192],[-122.397107,37.803024],[-122.399152,37.801889],[-122.400964,37.803564],[-122.400399,37.807262],[-122.402804,37.806023],[-122.409387,37.80872],[-122.410002,37.811],[-122.411323,37.81094],[-122.411249,37.80892],[-122.415289,37.809838],[-122.415352,37.809161],[-122.418846,37.811473],[-122.420595,37.811267],[-122.418231,37.809706],[-122.420911,37.808797],[-122.422411,37.807382],[-122.424632,37.806641],[-122.426561,37.807941],[-122.425382,37.804971],[-122.42242,37.790358],[-122.423975,37.79016],[-122.423404,37.787339],[-122.425047,37.78713],[-122.423541,37.779674],[-122.421892,37.77989],[-122.420714,37.774078],[-122.39486,37.794459],[-122.393079,37.795728]]]]}},{"type":"Feature","properties":{"name":"District 9"},"geometry":{"type":"MultiPolygon","coordinates":[[[[-122.375972,37.750963],[-122.376087,37.752249],[-122.37996,37.75203],[-122.380003,37.752922],[-122.382823,37.753333],[-122.382982,37.755025],[-122.380775,37.755219],[-122.381272,37.760034],[-122.383427,37.762301],[-122.386894,37.763479],[-122.385145,37.768143],[-122.38676,37.773273],[-122.384706,37.773354],[-122.381456,37.771917],[-122.381814,37.774615],[-122.386923,37.774328],[-122.384877,37.77533],[-122.38502,37.776335],[-122.390411,37.777142],[-122.387334,37.778326],[-122.387567,37.782342],[-122.386288,37.783959],[-122.387336,37.785518],[-122.38439,37.785698],[-122.384544,37.7874],[-122.387407,37.787241],[-122.387348,37.789311],[-122.391724,37.793429],[-122.393079,37.795728],[-122.39486,37.794459],[-122.420714,37.774078],[-122.42325,37.771937],[-122.422444,37.770715],[-122.420964,37.755295],[-122.421595,37.752047],[-122.421284,37.74885],[-122.422528,37.748795],[-122.422153,37.745307],[-122.425111,37.737551],[-122.429661,37.734271],[-122.433979,37.732203],[-122.433685,37.731853],[-122.431305,37.732328],[-122.425563,37.731579],[-122.414388,37.732417],[-122.40995,37.734715],[-122.408488,37.736291],[-122.408049,37.740339],[-122.40518,37.744981],[-122.403784,37.749433],[-122.402062,37.749397],[-122.375972,37.750963]]]]}},{"type":"Feature","properties":{"name":"District 10"},"geometry":{"type":"MultiPolygon","coordinates":[[[[-122.375972,37.750963],[-122.402062,37.749397],[-122.403784,37.749433],[-122.40518,37.744981],[-122.408049,37.740339],[-122.408488,37.736291],[-122.40995,37.734715],[-122.414388,37.732417],[-122.425563,37.731579],[-122.431305,37.732328],[-122.433685,37.731853],[-122.436551,37.731294],[-122.443791,37.728233],[-122.446308,37.725978],[-122.447878,37.723005],[-122.448686,37.717596],[-122.450235,37.715132],[-122.455028,37.711317],[-122.458307,37.7106],[-122.464176,37.710548],[-122.465994,37.710154],[-122.468939,37.708232],[-122.423782,37.70823],[-122.395107,37.708339],[-122.393635,37.708244],[-122.391479,37.709698],[-122.388032,37.708688],[-122.385984,37.709998],[-122.384515,37.709295],[-122.3794,37.70842],[-122.37443,37.70863],[-122.375913,37.709684],[-122.377787,37.708576],[-122.38008,37.711417],[-122.376165,37.716154],[-122.383397,37.720353],[-122.381875,37.722204],[-122.380658,37.721771],[-122.379121,37.72361],[-122.377081,37.724241],[-122.375557,37.720454],[-122.373753,37.718808],[-122.371714,37.718993],[-122.367773,37.717673],[-122.365301,37.715981],[-122.362479,37.718198],[-122.363657,37.719055],[-122.362714,37.720071],[-122.360032,37.718496],[-122.359221,37.719407],[-122.36381,37.722102],[-122.361524,37.723775],[-122.361641,37.725219],[-122.358014,37.726039],[-122.356967,37.72871],[-122.359963,37.728153],[-122.357731,37.729443],[-122.361976,37.730329],[-122.365205,37.732122],[-122.369205,37.731993],[-122.371937,37.734205],[-122.374394,37.73254],[-122.375685,37.732896],[-122.374893,37.734423],[-122.375948,37.735843],[-122.374951,37.737563],[-122.371217,37.737081],[-122.367519,37.738344],[-122.372924,37.738348],[-122.374004,37.73953],[-122.367631,37.740134],[-122.372762,37.745505],[-122.374141,37.744987],[-122.376243,37.747266],[-122.386834,37.747074],[-122.38618,37.748086],[-122.375775,37.748749],[-122.375972,37.750963]]]]}}]}