{
    "type": "FeatureCollection",
    "features": [
        {
            "type": "Feature",
            "geometry": {
                "type": "MultiPolygon",
                "coordinates": [
                    [
                        [
                            [
                                -122.205193,
                                37.517376
                            ],
                            [
                                -122.206396,
                                37.514964
                            ],
                            [
                                -122.210427,
                                37.512328
                            ],
                            [
                                -122.211298,
                                37.509473
                            ],
                            [
                                -122.210865,
                                37.508178
                            ],
                            [
                                -122.213264,
                                37.504636
                            ],
                            [
                                -122.214049,
                                37.502535
                            ],
                            [
                                -122.211166,
                                37.501851
                            ],
                            [
                                -122.213273,
                                37.495664
                            ],
                            [
                                -122.213373,
                                37.492966
                            ],
                            [
                                -122.212032,
                                37.490875
                            ],
                            [
                                -122.211942,
                                37.489904
                            ],
                            [
                                -122.213812,
                                37.488141
                            ],
                            [
                                -122.214851,
                                37.485047
                            ],
                            [
                                -122.217864,
                                37.482906
                            ],
                            [
                                -122.221821,
                                37.476502
                            ],
                            [
                                -122.208995,
                                37.467148
                            ],
                            [
                                -122.205525,
                                37.47046
                            ],
                            [
                                -122.198479,
                                37.481577
                            ],
                            [
                                -122.189129,
                                37.477968
                            ],
                            [
                                -122.186117,
                                37.47817
                            ],
                            [
                                -122.183731,
                                37.482363
                            ],
                            [
                                -122.183352,
                                37.481794
                            ],
                            [
                                -122.182446,
                                37.482573
                            ],
                            [
                                -122.182484,
                                37.483442
                            ],
                            [
                                -122.183081,
                                37.483507
                            ],
                            [
                                -122.182299,
                                37.485029
                            ],
                            [
                                -122.189339,
                                37.486563
                            ],
                            [
                                -122.189743,
                                37.485857
                            ],
                            [
                                -122.193035,
                                37.486273
                            ],
                            [
                                -122.192673,
                                37.488073
                            ],
                            [
                                -122.205726,
                                37.489451
                            ],
                            [
                                -122.211636,
                                37.491591
                            ],
                            [
                                -122.212608,
                                37.492674
                            ],
                            [
                                -122.212452,
                                37.495561
                            ],
                            [
                                -122.207121,
                                37.510211
                            ],
                            [
                                -122.204936,
                                37.509597
                            ],
                            [
                                -122.201199,
                                37.509042
                            ],
                            [
                                -122.198612,
                                37.511068
                            ],
                            [
                                -122.190118,
                                37.511566
                            ],
                            [
                                -122.189906,
                                37.512631
                            ],
                            [
                                -122.191779,
                                37.514077
                            ],
                            [
                                -122.198698,
                                37.514816
                            ],
                            [
                                -122.205193,
                                37.517376
                            ]
                        ]
                    ]
                ]
            },
            "properties": {
                "id": 45834,
                "name": "Dumbarton",
                "slug": "dumbarton",
                "city": "Redwood City",
                "county": "San Mateo County",
                "state": "CA",
                "hidden": false,
                "center_latitude": 37.49569970797518,
                "center_longitude": -122.19380039562174
            },
            "bbox": [
                -122.221821,
                37.467148,
                -122.182299,
                37.517376
            ]
        },
        {
            "type": "Feature",
            "geometry": {
                "type": "MultiPolygon",
                "coordinates": [
                    [
                        [
                            [
                                -122.221825,
                                37.476503
                            ],
                            [
                                -122.23057,
                                37.482788
                            ],
                            [
                                -122.237908,
                                37.476195
                            ],
                            [
                                -122.239383,
                                37.4746
                            ],
                            [
                                -122.241144,
                                37.472102
                            ],
                            [
                                -122.247122,
                                37.469732
                            ],
                            [
                                -122.246243,
                                37.468348
                            ],
                            [
                                -122.245595,
                                37.465993
                            ],
                            [
                                -122.246052,
                                37.464888
                            ],
                            [
                                -122.245842,
                                37.463689
                            ],
                            [
                                -122.2451,
                                37.462795
                            ],
                            [
                                -122.243406,
                                37.461709
                            ],
                            [
                                -122.241217,
                                37.459616
                            ],
                            [
                                -122.240741,
                                37.458569
                            ],
                            [
                                -122.240665,
                                37.457084
                            ],
                            [
                                -122.240246,
                                37.456379
                            ],
                            [
                                -122.237409,
                                37.453886
                            ],
                            [
                                -122.236001,
                                37.45282
                            ],
                            [
                                -122.234935,
                                37.452363
                            ],
                            [
                                -122.234554,
                                37.452001
                            ],
                            [
                                -122.23444,
                                37.451621
                            ],
                            [
                                -122.234918,
                                37.451117
                            ],
                            [
                                -122.231576,
                                37.448729
                            ],
                            [
                                -122.230358,
                                37.450861
                            ],
                            [
                                -122.22962,
                                37.452353
                            ],
                            [
                                -122.229496,
                                37.452608
                            ],
                            [
                                -122.228926,
                                37.453749
                            ],
                            [
                                -122.228781,
                                37.454073
                            ],
                            [
                                -122.227568,
                                37.456713
                            ],
                            [
                                -122.227425,
                                37.456991
                            ],
                            [
                                -122.225566,
                                37.46073
                            ],
                            [
                                -122.221825,
                                37.476503
                            ]
                        ]
                    ]
                ]
            },
            "properties": {
                "id": 45856,
                "name": "Central Park",
                "slug": "central-park",
                "city": "Redwood City",
                "county": "San Mateo County",
                "state": "CA",
                "hidden": false,
                "center_latitude": 37.46561135018371,
                "center_longitude": -122.23450637701765
            },
            "bbox": [
                -122.247122,
                37.448729,
                -122.221825,
                37.482788
            ]
        },
        {
            "type": "Feature",
            "geometry": {
                "type": "MultiPolygon",
                "coordinates": [
                    [
                        [
                            [
                                -122.245633,
                                37.465783
                            ],
                            [
                                -122.246243,
                                37.468348
                            ],
                            [
                                -122.247122,
                                37.469732
                            ],
                            [
                                -122.250145,
                                37.468497
                            ],
                            [
                                -122.248783,
                                37.466467
                            ],
                            [
                                -122.249092,
                                37.465372
                            ],
                            [
                                -122.251151,
                                37.465705
                            ],
                            [
                                -122.251793,
                                37.464361
                            ],
                            [
                                -122.253451,
                                37.465207
                            ],
                            [
                                -122.254621,
                                37.464879
                            ],
                            [
                                -122.255007,
                                37.464136
                            ],
                            [
                                -122.256006,
                                37.463808
                            ],
                            [
                                -122.255254,
                                37.461405
                            ],
                            [
                                -122.258181,
                                37.459849
                            ],
                            [
                                -122.259052,
                                37.459721
                            ],
                            [
                                -122.261465,
                                37.461448
                            ],
                            [
                                -122.262241,
                                37.461253
                            ],
                            [
                                -122.262744,
                                37.460763
                            ],
                            [
                                -122.263491,
                                37.457907
                            ],
                            [
                                -122.264336,
                                37.457747
                            ],
                            [
                                -122.265168,
                                37.458603
                            ],
                            [
                                -122.267072,
                                37.458008
                            ],
                            [
                                -122.268106,
                                37.456355
                            ],
                            [
                                -122.267918,
                                37.455989
                            ],
                            [
                                -122.267033,
                                37.455208
                            ],
                            [
                                -122.266669,
                                37.454346
                            ],
                            [
                                -122.267465,
                                37.453105
                            ],
                            [
                                -122.268119,
                                37.453065
                            ],
                            [
                                -122.269046,
                                37.452199
                            ],
                            [
                                -122.266583,
                                37.45074
                            ],
                            [
                                -122.263202,
                                37.44947
                            ],
                            [
                                -122.263685,
                                37.449017
                            ],
                            [
                                -122.263665,
                                37.448273
                            ],
                            [
                                -122.262528,
                                37.448294
                            ],
                            [
                                -122.261961,
                                37.448995
                            ],
                            [
                                -122.260143,
                                37.448284
                            ],
                            [
                                -122.260114,
                                37.447191
                            ],
                            [
                                -122.258796,
                                37.447765
                            ],
                            [
                                -122.257329,
                                37.447203
                            ],
                            [
                                -122.246923,
                                37.455472
                            ],
                            [
                                -122.243912,
                                37.453075
                            ],
                            [
                                -122.242644,
                                37.454146
                            ],
                            [
                                -122.24126,
                                37.454357
                            ],
                            [
                                -122.240383,
                                37.455063
                            ],
                            [
                                -122.234918,
                                37.451117
                            ],
                            [
                                -122.23444,
                                37.451621
                            ],
                            [
                                -122.234554,
                                37.452001
                            ],
                            [
                                -122.234935,
                                37.452363
                            ],
                            [
                                -122.236001,
                                37.45282
                            ],
                            [
                                -122.237409,
                                37.453886
                            ],
                            [
                                -122.240246,
                                37.456379
                            ],
                            [
                                -122.240665,
                                37.457084
                            ],
                            [
                                -122.240741,
                                37.458569
                            ],
                            [
                                -122.241217,
                                37.459616
                            ],
                            [
                                -122.243406,
                                37.461709
                            ],
                            [
                                -122.2451,
                                37.462795
                            ],
                            [
                                -122.245842,
                                37.463689
                            ],
                            [
                                -122.246052,
                                37.464888
                            ],
                            [
                                -122.245633,
                                37.465783
                            ]
                        ]
                    ]
                ]
            },
            "properties": {
                "id": 45336,
                "name": "Farm Hills Estates",
                "slug": "farm-hills-estates",
                "city": "Redwood City",
                "county": "San Mateo County",
                "state": "CA",
                "center_latitude": 37.458492361383435,
                "center_longitude": -122.2517429061102
            },
            "bbox": [
                -122.269046,
                37.447191,
                -122.23444,
                37.469732
            ]
        },
        {
            "type": "Feature",
            "geometry": {
                "type": "MultiPolygon",
                "coordinates": [
                    [
                        [
                            [
                                -122.252472,
                                37.480451
                            ],
                            [
                                -122.253765,
                                37.48145
                            ],
                            [
                                -122.256962,
                                37.479265
                            ],
                            [
                                -122.258454,
                                37.480442
                            ],
                            [
                                -122.261953,
                                37.477546
                            ],
                            [
                                -122.263203,
                                37.475478
                            ],
                            [
                                -122.264118,
                                37.474941
                            ],
                            [
                                -122.276412,
                                37.474623
                            ],
                            [
                                -122.278203,
                                37.474146
                            ],
                            [
                                -122.282452,
                                37.474459
                            ],
                            [
                                -122.286213,
                                37.471743
                            ],
                            [
                                -122.287186,
                                37.470491
                            ],
                            [
                                -122.290125,
                                37.469942
                            ],
                            [
                                -122.290823,
                                37.469397
                            ],
                            [
                                -122.286934,
                                37.468119
                            ],
                            [
                                -122.285027,
                                37.466238
                            ],
                            [
                                -122.282822,
                                37.465776
                            ],
                            [
                                -122.28293,
                                37.46522
                            ],
                            [
                                -122.281511,
                                37.465078
                            ],
                            [
                                -122.279631,
                                37.462751
                            ],
                            [
                                -122.277109,
                                37.462679
                            ],
                            [
                                -122.276785,
                                37.462412
                            ],
                            [
                                -122.279425,
                                37.46036
                            ],
                            [
                                -122.27833,
                                37.461003
                            ],
                            [
                                -122.277461,
                                37.460698
                            ],
                            [
                                -122.277811,
                                37.460091
                            ],
                            [
                                -122.27639,
                                37.459134
                            ],
                            [
                                -122.276667,
                                37.458349
                            ],
                            [
                                -122.275912,
                                37.458326
                            ],
                            [
                                -122.275934,
                                37.457632
                            ],
                            [
                                -122.274342,
                                37.456932
                            ],
                            [
                                -122.274189,
                                37.456288
                            ],
                            [
                                -122.272889,
                                37.456751
                            ],
                            [
                                -122.272319,
                                37.456229
                            ],
                            [
                                -122.271429,
                                37.456381
                            ],
                            [
                                -122.268958,
                                37.454749
                            ],
                            [
                                -122.268373,
                                37.455025
                            ],
                            [
                                -122.268738,
                                37.45614
                            ],
                            [
                                -122.268106,
                                37.456355
                            ],
                            [
                                -122.267072,
                                37.458008
                            ],
                            [
                                -122.265168,
                                37.458603
                            ],
                            [
                                -122.264336,
                                37.457747
                            ],
                            [
                                -122.263503,
                                37.457909
                            ],
                            [
                                -122.262746,
                                37.460764
                            ],
                            [
                                -122.262232,
                                37.46125
                            ],
                            [
                                -122.261465,
                                37.461448
                            ],
                            [
                                -122.259052,
                                37.459721
                            ],
                            [
                                -122.258181,
                                37.459849
                            ],
                            [
                                -122.255254,
                                37.461405
                            ],
                            [
                                -122.256006,
                                37.463808
                            ],
                            [
                                -122.255007,
                                37.464136
                            ],
                            [
                                -122.254621,
                                37.464879
                            ],
                            [
                                -122.253451,
                                37.465207
                            ],
                            [
                                -122.251793,
                                37.464361
                            ],
                            [
                                -122.251151,
                                37.465705
                            ],
                            [
                                -122.249092,
                                37.465372
                            ],
                            [
                                -122.248783,
                                37.466467
                            ],
                            [
                                -122.250145,
                                37.468497
                            ],
                            [
                                -122.247122,
                                37.469733
                            ],
                            [
                                -122.250443,
                                37.4725
                            ],
                            [
                                -122.250784,
                                37.473583
                            ],
                            [
                                -122.250808,
                                37.474439
                            ],
                            [
                                -122.251388,
                                37.475056
                            ],
                            [
                                -122.250627,
                                37.475669
                            ],
                            [
                                -122.251163,
                                37.476598
                            ],
                            [
                                -122.251335,
                                37.478768
                            ],
                            [
                                -122.252472,
                                37.480451
                            ]
                        ]
                    ]
                ]
            },
            "properties": {
                "id": 44670,
                "name": "Cordilleras Heights",
                "slug": "cordilleras-heights",
                "city": "Redwood City",
                "county": "San Mateo County",
                "state": "CA",
                "hidden": false,
                "center_latitude": 37.468049655966894,
                "center_longitude": -122.26803716378404
            },
            "bbox": [
                -122.290823,
                37.454749,
                -122.247122,
                37.48145
            ]
        },
        {
            "type": "Feature",
            "geometry": {
                "type": "MultiPolygon",
                "coordinates": [
                    [
                        [
                            [
                                -122.221605,
                                37.501036
                            ],
                            [
                                -122.222301,
                                37.501552
                            ],
                            [
                                -122.222645,
                                37.501522
                            ],
                            [
                                -122.223499,
                                37.500728
                            ],
                            [
                                -122.22453,
                                37.500386
                            ],
                            [
                                -122.223754,
                                37.498265
                            ],
                            [
                                -122.223959,
                                37.49818
                            ],
                            [
                                -122.224123,
                                37.498493
                            ],
                            [
                                -122.224615,
                                37.498224
                            ],
                            [
                                -122.225628,
                                37.498081
                            ],
                            [
                                -122.228362,
                                37.498227
                            ],
                            [
                                -122.229483,
                                37.498068
                            ],
                            [
                                -122.231156,
                                37.498304
                            ],
                            [
                                -122.232623,
                                37.498141
                            ],
                            [
                                -122.232996,
                                37.498306
                            ],
                            [
                                -122.236311,
                                37.498188
                            ],
                            [
                                -122.236557,
                                37.498138
                            ],
                            [
                                -122.238118,
                                37.498578
                            ],
                            [
                                -122.238375,
                                37.498425
                            ],
                            [
                                -122.236768,
                                37.497528
                            ],
                            [
                                -122.235204,
                                37.496929
                            ],
                            [
                                -122.226752,
                                37.494526
                            ],
                            [
                                -122.22377,
                                37.493463
                            ],
                            [
                                -122.216332,
                                37.490168
                            ],
                            [
                                -122.212949,
                                37.488961
                            ],
                            [
                                -122.211935,
                                37.489908
                            ],
                            [
                                -122.212032,
                                37.490875
                            ],
                            [
                                -122.213373,
                                37.492966
                            ],
                            [
                                -122.213273,
                                37.495664
                            ],
                            [
                                -122.211211,
                                37.501833
                            ],
                            [
                                -122.214095,
                                37.502553
                            ],
                            [
                                -122.215828,
                                37.50521
                            ],
                            [
                                -122.220508,
                                37.50451
                            ],
                            [
                                -122.2219,
                                37.503721
                            ],
                            [
                                -122.2219,
                                37.502584
                            ],
                            [
                                -122.219791,
                                37.501227
                            ],
                            [
                                -122.218717,
                                37.500217
                            ],
                            [
                                -122.218483,
                                37.498167
                            ],
                            [
                                -122.219469,
                                37.496638
                            ],
                            [
                                -122.219847,
                                37.498095
                            ],
                            [
                                -122.219652,
                                37.499176
                            ],
                            [
                                -122.220461,
                                37.500303
                            ],
                            [
                                -122.22088,
                                37.500556
                            ],
                            [
                                -122.220884,
                                37.500727
                            ],
                            [
                                -122.221605,
                                37.501036
                            ]
                        ]
                    ]
                ]
            },
            "properties": {
                "id": 45594,
                "name": "Bair Island",
                "slug": "bair-island",
                "city": "Redwood City",
                "county": "San Mateo County",
                "state": "CA",
                "hidden": false,
                "center_latitude": 37.49524959998908,
                "center_longitude": -122.22512450014554
            },
            "bbox": [
                -122.238375,
                37.488961,
                -122.211211,
                37.50521
            ]
        },
        {
            "type": "Feature",
            "geometry": {
                "type": "MultiPolygon",
                "coordinates": [
                    [
                        [
                            [
                                -122.236768,
                                37.497528
                            ],
                            [
                                -122.238375,
                                37.498425
                            ],
                            [
                                -122.238616,
                                37.498213
                            ],
                            [
                                -122.239363,
                                37.497688
                            ],
                            [
                                -122.239879,
                                37.497314
                            ],
                            [
                                -122.241195,
                                37.498245
                            ],
                            [
                                -122.24157,
                                37.49774
                            ],
                            [
                                -122.245711,
                                37.49477
                            ],
                            [
                                -122.242146,
                                37.491899
                            ],
                            [
                                -122.240222,
                                37.490827
                            ],
                            [
                                -122.236053,
                                37.487174
                            ],
                            [
                                -122.230445,
                                37.491277
                            ],
                            [
                                -122.229764,
                                37.491993
                            ],
                            [
                                -122.228393,
                                37.492213
                            ],
                            [
                                -122.228222,
                                37.493112
                            ],
                            [
                                -122.227594,
                                37.493802
                            ],
                            [
                                -122.227156,
                                37.493836
                            ],
                            [
                                -122.226752,
                                37.494526
                            ],
                            [
                                -122.235204,
                                37.496929
                            ],
                            [
                                -122.236768,
                                37.497528
                            ]
                        ]
                    ]
                ]
            },
            "properties": {
                "id": 45320,
                "name": "Centennial",
                "slug": "centennial",
                "city": "Redwood City",
                "county": "San Mateo County",
                "state": "CA",
                "hidden": false,
                "center_latitude": 37.49279954995933,
                "center_longitude": -122.23584434968694
            },
            "bbox": [
                -122.245711,
                37.487174,
                -122.226752,
                37.498425
            ]
        },
        {
            "type": "Feature",
            "geometry": {
                "type": "MultiPolygon",
                "coordinates": [
                    [
                        [
                            [
                                -122.221822,
                                37.476503
                            ],
                            [
                                -122.217861,
                                37.482912
                            ],
                            [
                                -122.21485,
                                37.485045
                            ],
                            [
                                -122.213818,
                                37.488137
                            ],
                            [
                                -122.212924,
                                37.488951
                            ],
                            [
                                -122.216336,
                                37.490164
                            ],
                            [
                                -122.223778,
                                37.493465
                            ],
                            [
                                -122.226752,
                                37.494526
                            ],
                            [
                                -122.227156,
                                37.493836
                            ],
                            [
                                -122.227594,
                                37.493802
                            ],
                            [
                                -122.228222,
                                37.493112
                            ],
                            [
                                -122.228393,
                                37.492213
                            ],
                            [
                                -122.229764,
                                37.491993
                            ],
                            [
                                -122.230445,
                                37.491277
                            ],
                            [
                                -122.236053,
                                37.487174
                            ],
                            [
                                -122.233255,
                                37.484709
                            ],
                            [
                                -122.221822,
                                37.476503
                            ]
                        ]
                    ]
                ]
            },
            "properties": {
                "id": 45026,
                "name": "Downtown Redwood City",
                "slug": "downtown-redwood-city",
                "city": "Redwood City",
                "county": "San Mateo County",
                "state": "CA",
                "hidden": false,
                "center_latitude": 37.487417549979995,
                "center_longitude": -122.22836200015615
            },
            "bbox": [
                -122.236053,
                37.476503,
                -122.212924,
                37.494526
            ]
        },
        {
            "type": "Feature",
            "geometry": {
                "type": "MultiPolygon",
                "coordinates": [
                    [
                        [
                            [
                                -122.24509,
                                37.477012
                            ],
                            [
                                -122.246941,
                                37.478541
                            ],
                            [
                                -122.246188,
                                37.479137
                            ],
                            [
                                -122.250129,
                                37.482277
                            ],
                            [
                                -122.252465,
                                37.480443
                            ],
                            [
                                -122.25133,
                                37.478772
                            ],
                            [
                                -122.251154,
                                37.476579
                            ],
                            [
                                -122.250625,
                                37.475669
                            ],
                            [
                                -122.251394,
                                37.475056
                            ],
                            [
                                -122.250798,
                                37.47443
                            ],
                            [
                                -122.250775,
                                37.473583
                            ],
                            [
                                -122.250435,
                                37.472494
                            ],
                            [
                                -122.247121,
                                37.469733
                            ],
                            [
                                -122.241418,
                                37.471913
                            ],
                            [
                                -122.240823,
                                37.472422
                            ],
                            [
                                -122.239293,
                                37.474596
                            ],
                            [
                                -122.240904,
                                37.47594
                            ],
                            [
                                -122.242564,
                                37.476932
                            ],
                            [
                                -122.24349,
                                37.47617
                            ],
                            [
                                -122.244714,
                                37.476189
                            ],
                            [
                                -122.24509,
                                37.477012
                            ]
                        ]
                    ]
                ]
            },
            "properties": {
                "id": 555858,
                "name": "Eagle Hill",
                "slug": "eagle-hill",
                "city": "Redwood City",
                "county": "San Mateo County",
                "state": "CA",
                "hidden": false,
                "center_latitude": 37.476014671207395,
                "center_longitude": -122.24587962551041
            },
            "bbox": [
                -122.252465,
                37.469733,
                -122.239293,
                37.482277
            ]
        },
        {
            "type": "Feature",
            "geometry": {
                "type": "MultiPolygon",
                "coordinates": [
                    [
                        [
                            [
                                -122.242407,
                                37.48834
                            ],
                            [
                                -122.239773,
                                37.490435
                            ],
                            [
                                -122.240216,
                                37.490825
                            ],
                            [
                                -122.242145,
                                37.491898
                            ],
                            [
                                -122.244196,
                                37.493551
                            ],
                            [
                                -122.245337,
                                37.49294
                            ],
                            [
                                -122.245877,
                                37.491966
                            ],
                            [
                                -122.24741,
                                37.491026
                            ],
                            [
                                -122.247703,
                                37.490593
                            ],
                            [
                                -122.247589,
                                37.490106
                            ],
                            [
                                -122.248799,
                                37.489111
                            ],
                            [
                                -122.249311,
                                37.487945
                            ],
                            [
                                -122.250082,
                                37.487097
                            ],
                            [
                                -122.250498,
                                37.486836
                            ],
                            [
                                -122.251865,
                                37.486909
                            ],
                            [
                                -122.253053,
                                37.486495
                            ],
                            [
                                -122.253905,
                                37.484874
                            ],
                            [
                                -122.254504,
                                37.484705
                            ],
                            [
                                -122.255114,
                                37.484233
                            ],
                            [
                                -122.256905,
                                37.483917
                            ],
                            [
                                -122.252465,
                                37.480441
                            ],
                            [
                                -122.242407,
                                37.48834
                            ]
                        ]
                    ]
                ]
            },
            "properties": {
                "id": 556050,
                "name": "Edgewood Park",
                "slug": "edgewood-park",
                "city": "Redwood City",
                "county": "San Mateo County",
                "state": "CA",
                "hidden": false,
                "center_latitude": 37.486964945444996,
                "center_longitude": -122.24833903988997
            },
            "bbox": [
                -122.256905,
                37.480441,
                -122.239773,
                37.493551
            ]
        },
        {
            "type": "Feature",
            "geometry": {
                "type": "MultiPolygon",
                "coordinates": [
                    [
                        [
                            [
                                -122.237907,
                                37.476193
                            ],
                            [
                                -122.230564,
                                37.482781
                            ],
                            [
                                -122.233254,
                                37.484708
                            ],
                            [
                                -122.239773,
                                37.490435
                            ],
                            [
                                -122.250123,
                                37.482277
                            ],
                            [
                                -122.246188,
                                37.479137
                            ],
                            [
                                -122.246941,
                                37.478541
                            ],
                            [
                                -122.24509,
                                37.477012
                            ],
                            [
                                -122.244714,
                                37.476189
                            ],
                            [
                                -122.24349,
                                37.47617
                            ],
                            [
                                -122.242564,
                                37.476932
                            ],
                            [
                                -122.240904,
                                37.47594
                            ],
                            [
                                -122.239293,
                                37.474596
                            ],
                            [
                                -122.237907,
                                37.476193
                            ]
                        ]
                    ]
                ]
            },
            "properties": {
                "id": 555887,
                "name": "Mt. Carmel",
                "slug": "mt-carmel",
                "city": "Redwood City",
                "county": "San Mateo County",
                "state": "CA",
                "hidden": false,
                "center_latitude": 37.48251585157184,
                "center_longitude": -122.2403182991718
            },
            "bbox": [
                -122.250123,
                37.474596,
                -122.230564,
                37.490435
            ]
        },
        {
            "type": "Feature",
            "geometry": {
                "type": "MultiPolygon",
                "coordinates": [
                    [
                        [
                            [
                                -122.24548,
                                37.550376
                            ],
                            [
                                -122.246199,
                                37.550509
                            ],
                            [
                                -122.247998,
                                37.54966
                            ],
                            [
                                -122.249367,
                                37.550501
                            ],
                            [
                                -122.251914,
                                37.547384
                            ],
                            [
                                -122.252701,
                                37.544445
                            ],
                            [
                                -122.250954,
                                37.541643
                            ],
                            [
                                -122.251142,
                                37.54049
                            ],
                            [
                                -122.252162,
                                37.540261
                            ],
                            [
                                -122.255793,
                                37.541523
                            ],
                            [
                                -122.258256,
                                37.541303
                            ],
                            [
                                -122.259756,
                                37.540595
                            ],
                            [
                                -122.260581,
                                37.538742
                            ],
                            [
                                -122.260671,
                                37.533727
                            ],
                            [
                                -122.261881,
                                37.53314
                            ],
                            [
                                -122.264882,
                                37.534089
                            ],
                            [
                                -122.266644,
                                37.533551
                            ],
                            [
                                -122.267758,
                                37.530636
                            ],
                            [
                                -122.269296,
                                37.529018
                            ],
                            [
                                -122.265176,
                                37.525803
                            ],
                            [
                                -122.263609,
                                37.522544
                            ],
                            [
                                -122.261087,
                                37.520454
                            ],
                            [
                                -122.259988,
                                37.521382
                            ],
                            [
                                -122.257264,
                                37.518986
                            ],
                            [
                                -122.256416,
                                37.519607
                            ],
                            [
                                -122.255781,
                                37.519262
                            ],
                            [
                                -122.253574,
                                37.517576
                            ],
                            [
                                -122.253983,
                                37.517093
                            ],
                            [
                                -122.253687,
                                37.516973
                            ],
                            [
                                -122.252666,
                                37.517075
                            ],
                            [
                                -122.250249,
                                37.518494
                            ],
                            [
                                -122.250063,
                                37.520445
                            ],
                            [
                                -122.24919,
                                37.520585
                            ],
                            [
                                -122.247534,
                                37.522525
                            ],
                            [
                                -122.24687,
                                37.525028
                            ],
                            [
                                -122.244062,
                                37.529627
                            ],
                            [
                                -122.241967,
                                37.531171
                            ],
                            [
                                -122.23967,
                                37.532112
                            ],
                            [
                                -122.236496,
                                37.53256
                            ],
                            [
                                -122.232527,
                                37.534798
                            ],
                            [
                                -122.225579,
                                37.54487
                            ],
                            [
                                -122.225639,
                                37.54745
                            ],
                            [
                                -122.227578,
                                37.548805
                            ],
                            [
                                -122.228334,
                                37.548677
                            ],
                            [
                                -122.228601,
                                37.549352
                            ],
                            [
                                -122.236223,
                                37.548666
                            ],
                            [
                                -122.242437,
                                37.549565
                            ],
                            [
                                -122.243732,
                                37.548818
                            ],
                            [
                                -122.244585,
                                37.549162
                            ],
                            [
                                -122.244659,
                                37.550312
                            ],
                            [
                                -122.24548,
                                37.550376
                            ]
                        ]
                    ]
                ]
            },
            "properties": {
                "id": 45459,
                "name": "Redwood Shores",
                "slug": "redwood-shores",
                "city": "Redwood City",
                "county": "San Mateo County",
                "state": "CA",
                "hidden": false,
                "center_latitude": 37.53373550014325,
                "center_longitude": -122.24739849984087
            },
            "bbox": [
                -122.269296,
                37.516973,
                -122.225579,
                37.550509
            ]
        },
        {
            "type": "Feature",
            "geometry": {
                "type": "MultiPolygon",
                "coordinates": [
                    [
                        [
                            [
                                -122.213771,
                                37.468036
                            ],
                            [
                                -122.212468,
                                37.469684
                            ],
                            [
                                -122.221825,
                                37.476503
                            ],
                            [
                                -122.225566,
                                37.46073
                            ],
                            [
                                -122.227425,
                                37.456991
                            ],
                            [
                                -122.227568,
                                37.456713
                            ],
                            [
                                -122.228781,
                                37.454073
                            ],
                            [
                                -122.228926,
                                37.453749
                            ],
                            [
                                -122.229496,
                                37.452608
                            ],
                            [
                                -122.22962,
                                37.452353
                            ],
                            [
                                -122.230108,
                                37.45138
                            ],
                            [
                                -122.230358,
                                37.450861
                            ],
                            [
                                -122.231574,
                                37.448729
                            ],
                            [
                                -122.234564,
                                37.444628
                            ],
                            [
                                -122.228245,
                                37.441391
                            ],
                            [
                                -122.225851,
                                37.444473
                            ],
                            [
                                -122.225103,
                                37.44396
                            ],
                            [
                                -122.224915,
                                37.444034
                            ],
                            [
                                -122.225013,
                                37.444101
                            ],
                            [
                                -122.217341,
                                37.453766
                            ],
                            [
                                -122.220516,
                                37.456032
                            ],
                            [
                                -122.220431,
                                37.45613
                            ],
                            [
                                -122.220584,
                                37.456307
                            ],
                            [
                                -122.221984,
                                37.457285
                            ],
                            [
                                -122.2191,
                                37.460821
                            ],
                            [
                                -122.218102,
                                37.463714
                            ],
                            [
                                -122.216978,
                                37.465117
                            ],
                            [
                                -122.216192,
                                37.464792
                            ],
                            [
                                -122.213666,
                                37.467961
                            ],
                            [
                                -122.213771,
                                37.468036
                            ]
                        ]
                    ]
                ]
            },
            "properties": {
                "id": 45058,
                "name": "Horgan Ranch",
                "slug": "horgan-ranch",
                "city": "Redwood City",
                "county": "San Mateo County",
                "state": "CA",
                "hidden": false,
                "center_latitude": 37.458946894034,
                "center_longitude": -122.22346237134133
            },
            "bbox": [
                -122.234564,
                37.441391,
                -122.212468,
                37.476503
            ]
        },
        {
            "type": "Feature",
            "geometry": {
                "type": "MultiPolygon",
                "coordinates": [
                    [
                        [
                            [
                                -122.267919,
                                37.482714
                            ],
                            [
                                -122.26899,
                                37.482877
                            ],
                            [
                                -122.269272,
                                37.482645
                            ],
                            [
                                -122.271908,
                                37.481655
                            ],
                            [
                                -122.273095,
                                37.481606
                            ],
                            [
                                -122.273636,
                                37.481921
                            ],
                            [
                                -122.273996,
                                37.481608
                            ],
                            [
                                -122.274383,
                                37.481626
                            ],
                            [
                                -122.274843,
                                37.481214
                            ],
                            [
                                -122.275364,
                                37.481528
                            ],
                            [
                                -122.277345,
                                37.48043
                            ],
                            [
                                -122.277937,
                                37.479953
                            ],
                            [
                                -122.278474,
                                37.47923
                            ],
                            [
                                -122.279487,
                                37.478486
                            ],
                            [
                                -122.277257,
                                37.476067
                            ],
                            [
                                -122.276947,
                                37.475577
                            ],
                            [
                                -122.276712,
                                37.474615
                            ],
                            [
                                -122.264123,
                                37.474939
                            ],
                            [
                                -122.263187,
                                37.475484
                            ],
                            [
                                -122.262028,
                                37.477458
                            ],
                            [
                                -122.258454,
                                37.480442
                            ],
                            [
                                -122.256938,
                                37.479269
                            ],
                            [
                                -122.255823,
                                37.480049
                            ],
                            [
                                -122.253751,
                                37.48146
                            ],
                            [
                                -122.256906,
                                37.483918
                            ],
                            [
                                -122.258626,
                                37.483194
                            ],
                            [
                                -122.258672,
                                37.481908
                            ],
                            [
                                -122.259195,
                                37.481631
                            ],
                            [
                                -122.260695,
                                37.481716
                            ],
                            [
                                -122.260714,
                                37.481497
                            ],
                            [
                                -122.262984,
                                37.48166
                            ],
                            [
                                -122.262882,
                                37.482834
                            ],
                            [
                                -122.264937,
                                37.482958
                            ],
                            [
                                -122.265089,
                                37.481892
                            ],
                            [
                                -122.265279,
                                37.481421
                            ],
                            [
                                -122.265843,
                                37.481223
                            ],
                            [
                                -122.267604,
                                37.482315
                            ],
                            [
                                -122.267919,
                                37.482714
                            ]
                        ]
                    ]
                ]
            },
            "properties": {
                "id": 44572,
                "name": "Clifford Heights",
                "slug": "clifford-heights",
                "city": "Redwood City",
                "county": "San Mateo County",
                "state": "CA",
                "hidden": false,
                "center_latitude": 37.47921399992623,
                "center_longitude": -122.26660800030893
            },
            "bbox": [
                -122.279487,
                37.474615,
                -122.253751,
                37.483918
            ]
        }
    ]
}