{"type": "FeatureCollection", "features": [{"type": "Feature", "properties": {"name": "Hillsborough", "slug": "hillsborough"}, "geometry": {"type": "MultiPolygon", "coordinates": [[[[-122.37181161, 37.58017048], [-122.37104821, 37.58023099], [-122.37133714, 37.57990451], [-122.36948035, 37.57886426], [-122.36976105, 37.5786471], [-122.36931971, 37.57803998], [-122.36842702, 37.57807478], [-122.36344252, 37.58060295], [-122.36304864, 37.58003624], [-122.36076456, 37.57910398], [-122.35884087, 37.5772369], [-122.35772793, 37.57792099], [-122.35685409, 37.57730329], [-122.35601809, 37.5784958], [-122.35256428, 37.57705718], [-122.3524336, 37.57566063], [-122.35293558, 37.57477302], [-122.35374964, 37.57448757], [-122.35274277, 37.57282147], [-122.35406859, 37.57202972], [-122.35188768, 37.56996325], [-122.35244942, 37.56972313], [-122.35008145, 37.56630928], [-122.35488892, 37.56420708], [-122.35253404, 37.5609148], [-122.3371783, 37.56800001], [-122.33675959, 37.5672751], [-122.33540644, 37.56697927], [-122.33153479, 37.56476507], [-122.32907976, 37.56221458], [-122.33960472, 37.55274101], [-122.33994028, 37.55054267], [-122.34060872, 37.54989103], [-122.34004559, 37.54788976], [-122.33768162, 37.54622008], [-122.33246268, 37.55060947], [-122.32913351, 37.54833567], [-122.32838364, 37.54864223], [-122.33257537, 37.54417255], [-122.33019144, 37.54127896], [-122.33295687, 37.5389242], [-122.33355522, 37.53938484], [-122.33522627, 37.53801553], [-122.3386097, 37.54060554], [-122.34100938, 37.53832237], [-122.33727455, 37.53534349], [-122.34159716, 37.53174881], [-122.343387, 37.53352497], [-122.34572791, 37.53968938], [-122.34951472, 37.54063216], [-122.35012905, 37.54034989], [-122.35035104, 37.53697179], [-122.34922979, 37.53590366], [-122.35094632, 37.53310245], [-122.35298499, 37.53247495], [-122.35521731, 37.53092032], [-122.35838811, 37.53011004], [-122.3594388, 37.53027759], [-122.36091335, 37.53140972], [-122.36101811, 37.53469673], [-122.36170782, 37.53770817], [-122.36280588, 37.53875076], [-122.36272686, 37.54083059], [-122.36498351, 37.54479915], [-122.37075314, 37.54843296], [-122.37125995, 37.54808587], [-122.37110001, 37.54866159], [-122.3729002, 37.54891226], [-122.37671088, 37.55207777], [-122.3797027, 37.55637378], [-122.39342041, 37.57008833], [-122.39125301, 37.57132783], [-122.39090955, 37.57048384], [-122.39125574, 37.56993653], [-122.39018359, 37.56968772], [-122.38982271, 37.5688267], [-122.38791291, 37.56909336], [-122.38742276, 37.57033082], [-122.38570194, 37.57083863], [-122.38605175, 37.57195346], [-122.38358346, 37.57320198], [-122.38386194, 37.5741507], [-122.38345268, 37.57461084], [-122.38265729, 37.57492914], [-122.38132491, 37.5745059], [-122.38135586, 37.57525877], [-122.3800576, 37.5762333], [-122.38093448, 37.57746943], [-122.37983255, 37.57730687], [-122.3784178, 37.57783949], [-122.37809671, 37.57742927], [-122.37477357, 37.57978085], [-122.37354247, 37.57959538], [-122.37198633, 37.58084851], [-122.37181161, 37.58017048]]]]}}, {"type": "Feature", "properties": {"name": "Hillsborough Knolls", "slug": "hillsborough-knolls"}, "geometry": {"type": "MultiPolygon", "coordinates": [[[[-122.36128436, 37.55752404], [-122.3591881, 37.55840253], [-122.35843143, 37.55831687], [-122.35760337, 37.55880228], [-122.35738922, 37.5585453], [-122.35623281, 37.55858813], [-122.35513349, 37.55894505], [-122.35409129, 37.55960178], [-122.35394852, 37.56017285], [-122.35210216, 37.56110547], [-122.35176652, 37.56099805], [-122.35117165, 37.56021283], [-122.35100509, 37.55968934], [-122.35057679, 37.55949899], [-122.35071955, 37.55876136], [-122.35164755, 37.55750024], [-122.35155237, 37.5568102], [-122.35062438, 37.55640569], [-122.35088612, 37.55602498], [-122.35129063, 37.55588221], [-122.35252794, 37.55626292], [-122.35452669, 37.55471627], [-122.35643026, 37.55435935], [-122.35771517, 37.55355034], [-122.35885731, 37.55485904], [-122.36002325, 37.55528734], [-122.36035637, 37.55607256], [-122.36087985, 37.55619154], [-122.36097503, 37.55676261], [-122.36123677, 37.55690538], [-122.36128436, 37.55752404]]]]}}, {"type": "Feature", "properties": {"name": "Hillsborough Park", "slug": "hillsborough-park"}, "geometry": {"type": "MultiPolygon", "coordinates": [[[[-122.33960472, 37.55274101], [-122.34079958, 37.55121608], [-122.34285187, 37.54972892], [-122.34543953, 37.54842022], [-122.34680772, 37.54821202], [-122.34722413, 37.54797407], [-122.34770002, 37.54728997], [-122.34951555, 37.5477968], [-122.35037215, 37.54755885], [-122.35087184, 37.54870099], [-122.35144291, 37.5491293], [-122.35141912, 37.5500097], [-122.35158568, 37.55031903], [-122.35201398, 37.55048559], [-122.35170465, 37.55091389], [-122.35218054, 37.55098528], [-122.35313233, 37.55072354], [-122.35351304, 37.5508901], [-122.3532513, 37.55143737], [-122.35360822, 37.55234157], [-122.35365581, 37.55384063], [-122.35452669, 37.55471627], [-122.35252794, 37.55626292], [-122.35129063, 37.55588221], [-122.35088612, 37.55602498], [-122.35062438, 37.55640569], [-122.35031651, 37.55634192], [-122.34543862, 37.55750785], [-122.34522447, 37.55788857], [-122.34401094, 37.55767442], [-122.34379679, 37.55791236], [-122.34405853, 37.55812651], [-122.34415371, 37.55876897], [-122.34441545, 37.55898312], [-122.34408233, 37.55969696], [-122.34424889, 37.56019665], [-122.34412991, 37.56048218], [-122.3428926, 37.56098187], [-122.34205978, 37.56098187], [-122.34189322, 37.56091048], [-122.34217876, 37.56069633], [-122.34260706, 37.55993491], [-122.34267844, 37.55945901], [-122.34208358, 37.5568654], [-122.34158389, 37.55622295], [-122.341108, 37.55627054], [-122.34034657, 37.55608018], [-122.3393234, 37.55565188], [-122.33908546, 37.55455732], [-122.33998965, 37.55298688], [-122.33960472, 37.55274101]]]]}}, {"type": "Feature", "properties": {"name": "Lakeview", "slug": "lakeview"}, "geometry": {"type": "MultiPolygon", "coordinates": [[[[-122.35351304, 37.5508901], [-122.35313233, 37.55072354], [-122.35218054, 37.55098528], [-122.35170465, 37.55091389], [-122.35201398, 37.55048559], [-122.35158568, 37.55031903], [-122.35141912, 37.5500097], [-122.35144291, 37.5491293], [-122.35087184, 37.54870099], [-122.35037215, 37.54755885], [-122.34951555, 37.5477968], [-122.34770002, 37.54728997], [-122.34770002, 37.54672485], [-122.34752156, 37.54639768], [-122.34651029, 37.54550538], [-122.34656978, 37.54497], [-122.34689695, 37.54443462], [-122.34764053, 37.54372078], [-122.34784874, 37.54327463], [-122.34900872, 37.54247157], [-122.34924667, 37.54157927], [-122.34963333, 37.54110338], [-122.34979082, 37.54055533], [-122.35012905, 37.54034989], [-122.35003845, 37.53913874], [-122.35033707, 37.53682593], [-122.3495359, 37.53639314], [-122.34922979, 37.53590366], [-122.34936868, 37.53532025], [-122.35003703, 37.53469966], [-122.35035155, 37.5340788], [-122.35045814, 37.53415907], [-122.35094632, 37.53310245], [-122.35298499, 37.53247495], [-122.35521731, 37.53092032], [-122.35829071, 37.53012749], [-122.35907895, 37.53014199], [-122.36091335, 37.53140972], [-122.36123577, 37.53422157], [-122.36101811, 37.53469673], [-122.36170782, 37.53770817], [-122.36280588, 37.53875076], [-122.36272686, 37.54083059], [-122.36346332, 37.5415493], [-122.36388027, 37.54329087], [-122.36443219, 37.54392751], [-122.3638054, 37.54460951], [-122.36138787, 37.54594201], [-122.36041705, 37.54666536], [-122.36005537, 37.54750294], [-122.35906551, 37.54868315], [-122.35906551, 37.5494065], [-122.35942719, 37.55104357], [-122.35775205, 37.55292811], [-122.35771517, 37.55355034], [-122.35690615, 37.55412141], [-122.35528812, 37.55466868], [-122.35452669, 37.55471627], [-122.35365581, 37.55384063], [-122.35360822, 37.55234157], [-122.3532513, 37.55143737], [-122.35351304, 37.5508901]]]]}}, {"type": "Feature", "properties": {"name": "Brewer Subdivision", "slug": "brewer-subdivision"}, "geometry": {"type": "MultiPolygon", "coordinates": [[[[-122.3364041, 37.55559265], [-122.33950424, 37.55277443], [-122.33998965, 37.55298688], [-122.33922823, 37.55412902], [-122.33910925, 37.55512839], [-122.3393234, 37.55565188], [-122.34034657, 37.55608018], [-122.341108, 37.55627054], [-122.34158389, 37.55622295], [-122.34186943, 37.55655607], [-122.34208358, 37.5568654], [-122.34267844, 37.55945901], [-122.34260706, 37.55993491], [-122.34217876, 37.56069633], [-122.34189322, 37.56091048], [-122.33962526, 37.56153361], [-122.33830466, 37.56214037], [-122.33785256, 37.5624616], [-122.33718631, 37.56348476], [-122.33650816, 37.56406773], [-122.33278431, 37.5651837], [-122.33265008, 37.56544136], [-122.3305071, 37.56394167], [-122.33007816, 37.56330614], [-122.33009015, 37.5630751], [-122.32907976, 37.56221458], [-122.32955491, 37.56168164], [-122.32981873, 37.56172752], [-122.33020401, 37.56118202], [-122.3364041, 37.55559265]]]]}}, {"type": "Feature", "properties": {"name": "Hillsborough Heights", "slug": "hillsborough-heights"}, "geometry": {"type": "MultiPolygon", "coordinates": [[[[-122.33265008, 37.56544136], [-122.33278431, 37.5651837], [-122.33650816, 37.56406773], [-122.33718631, 37.56348476], [-122.33785256, 37.5624616], [-122.33889952, 37.56183104], [-122.34189322, 37.56091048], [-122.3428926, 37.56098187], [-122.34412991, 37.56048218], [-122.34424889, 37.56019665], [-122.34408233, 37.55969696], [-122.34441545, 37.55898312], [-122.34415371, 37.55876897], [-122.34405853, 37.55812651], [-122.34379679, 37.55791236], [-122.34401094, 37.55767442], [-122.34522447, 37.55788857], [-122.34543862, 37.55750785], [-122.35031651, 37.55634192], [-122.35124304, 37.55657225], [-122.35155237, 37.5568102], [-122.35164755, 37.55750024], [-122.35071955, 37.55876136], [-122.35057679, 37.55949899], [-122.35100509, 37.55968934], [-122.35117165, 37.56021283], [-122.35176652, 37.56099805], [-122.35210216, 37.56110547], [-122.34571272, 37.56410312], [-122.3371783, 37.56800001], [-122.33675959, 37.5672751], [-122.33643791, 37.56746441], [-122.33265008, 37.56544136]]]]}}, {"type": "Feature", "properties": {"name": "Carolands", "slug": "carolands"}, "geometry": {"type": "MultiPolygon", "coordinates": [[[[-122.35771517, 37.55355034], [-122.35775205, 37.55292811], [-122.35942719, 37.55104357], [-122.35906551, 37.5494065], [-122.35906551, 37.54868315], [-122.36005537, 37.54750294], [-122.36041705, 37.54666536], [-122.36138787, 37.54594201], [-122.3638054, 37.54460951], [-122.36443219, 37.54392751], [-122.36498351, 37.54479915], [-122.37075314, 37.54843296], [-122.37125995, 37.54808587], [-122.37144317, 37.54828287], [-122.37099467, 37.54859009], [-122.37110001, 37.54866159], [-122.37237779, 37.54873189], [-122.37298824, 37.54897064], [-122.37671088, 37.55207777], [-122.37870049, 37.55496555], [-122.37729498, 37.55579702], [-122.37555798, 37.55620153], [-122.37465378, 37.55680829], [-122.37385666, 37.55790285], [-122.37345215, 37.55887843], [-122.36896399, 37.56251761], [-122.36816449, 37.56300302], [-122.36668039, 37.56339774], [-122.36551921, 37.56434952], [-122.36340625, 37.56526323], [-122.36373521, 37.56447206], [-122.36409213, 37.56404376], [-122.36513909, 37.56375822], [-122.36461561, 37.56290162], [-122.36459181, 37.56183086], [-122.36411592, 37.56111702], [-122.36359244, 37.5612122], [-122.36352106, 37.56049836], [-122.36271204, 37.55995109], [-122.36266445, 37.55949899], [-122.3619982, 37.55911828], [-122.36209338, 37.55821408], [-122.36133195, 37.55788095], [-122.36123677, 37.55690538], [-122.36097503, 37.55676261], [-122.36087985, 37.55619154], [-122.36035637, 37.55607256], [-122.36002325, 37.55528734], [-122.35885731, 37.55485904], [-122.35771517, 37.55355034]]]]}}, {"type": "Feature", "properties": {"name": "Homeplace", "slug": "homeplace"}, "geometry": {"type": "MultiPolygon", "coordinates": [[[[-122.35253334, 37.56091499], [-122.35394852, 37.56017285], [-122.35409129, 37.55960178], [-122.35513349, 37.55894505], [-122.35623281, 37.55858813], [-122.35738922, 37.5585453], [-122.35760337, 37.55880228], [-122.35843143, 37.55831687], [-122.3591881, 37.55840253], [-122.36128436, 37.55752404], [-122.36133195, 37.55788095], [-122.36209338, 37.55821408], [-122.3619982, 37.55911828], [-122.36266445, 37.55949899], [-122.36271204, 37.55995109], [-122.36352106, 37.56049836], [-122.36359244, 37.5612122], [-122.36411592, 37.56111702], [-122.36433007, 37.56140256], [-122.36459181, 37.56183086], [-122.36461561, 37.56290162], [-122.36513909, 37.56375822], [-122.36409213, 37.56404376], [-122.36373521, 37.56447206], [-122.36340625, 37.56526323], [-122.36262578, 37.56625309], [-122.36131232, 37.5671668], [-122.36049379, 37.56855641], [-122.36003693, 37.56889905], [-122.35860925, 37.5698318], [-122.35657243, 37.57146887], [-122.35406859, 37.57202972], [-122.35277953, 37.57100003], [-122.35188768, 37.56996325], [-122.35244942, 37.56972313], [-122.35008145, 37.56630928], [-122.35488892, 37.56420708], [-122.35253334, 37.56091499]]]]}}, {"type": "Feature", "properties": {"name": "Burlingame Hills", "slug": "burlingame-hills"}, "geometry": {"type": "MultiPolygon", "coordinates": [[[[-122.38677173, 37.58264091], [-122.3784178, 37.57783949], [-122.37983255, 37.57730687], [-122.38093448, 37.57746943], [-122.3800576, 37.5762333], [-122.38135586, 37.57525877], [-122.38132491, 37.5745059], [-122.38265729, 37.57492914], [-122.38345268, 37.57461084], [-122.38386194, 37.5741507], [-122.38358346, 37.57320198], [-122.38605175, 37.57195346], [-122.38570194, 37.57083863], [-122.38742276, 37.57033082], [-122.38791291, 37.56909336], [-122.38982271, 37.5688267], [-122.39018359, 37.56968772], [-122.39125574, 37.56993653], [-122.39090955, 37.57048384], [-122.39125301, 37.57132783], [-122.39342041, 37.57008833], [-122.39221197, 37.56886396], [-122.39314633, 37.56827964], [-122.39815357, 37.57344788], [-122.39719184, 37.57411192], [-122.39863306, 37.57610995], [-122.39328613, 37.57830336], [-122.3900453, 37.58045915], [-122.38875379, 37.58081461], [-122.38793111, 37.58212781], [-122.38677173, 37.58264091]]]]}}, {"type": "Feature", "properties": {"name": "Hillsborough Hills", "slug": "hillsborough-hills"}, "geometry": {"type": "MultiPolygon", "coordinates": [[[[-122.37809671, 37.57742927], [-122.37808762, 37.57646772], [-122.3777307, 37.57632495], [-122.37764742, 37.57588475], [-122.37912268, 37.57526609], [-122.37924166, 37.57501625], [-122.37911079, 37.57481399], [-122.37850402, 37.57470692], [-122.37840885, 37.57445707], [-122.37856351, 37.57426672], [-122.37787347, 37.57400498], [-122.37830177, 37.57291042], [-122.37824229, 37.57241074], [-122.37853873, 37.57227392], [-122.37991881, 37.57222633], [-122.38077542, 37.57244048], [-122.38267899, 37.57246427], [-122.3839401, 37.57141731], [-122.38253622, 37.57063209], [-122.38232207, 37.57020379], [-122.38251243, 37.56984687], [-122.38341662, 37.56929959], [-122.38355939, 37.56896647], [-122.38530591, 37.56824311], [-122.38681925, 37.56734843], [-122.38696202, 37.56728181], [-122.38813271, 37.5685572], [-122.38849439, 37.56811938], [-122.38918919, 37.5677577], [-122.38859909, 37.5670629], [-122.38933196, 37.56649183], [-122.38945789, 37.56617981], [-122.38988832, 37.56631375], [-122.39048951, 37.56673783], [-122.39074025, 37.56705489], [-122.39052337, 37.56719076], [-122.39342041, 37.57008833], [-122.39125301, 37.57132783], [-122.39103819, 37.57112105], [-122.39090955, 37.57048384], [-122.39125574, 37.56993653], [-122.39018359, 37.56968772], [-122.38982271, 37.5688267], [-122.38948671, 37.56875288], [-122.38844362, 37.5691311], [-122.38791291, 37.56909336], [-122.38780354, 37.56986503], [-122.38742276, 37.57033082], [-122.3870183, 37.57050509], [-122.38624363, 37.57049541], [-122.38570194, 37.57083863], [-122.38563165, 37.57125914], [-122.38605175, 37.57195346], [-122.38358346, 37.57320198], [-122.38386194, 37.5741507], [-122.38345268, 37.57461084], [-122.38265729, 37.57492914], [-122.3819283, 37.57457023], [-122.38132491, 37.5745059], [-122.38135586, 37.57525877], [-122.3800576, 37.5762333], [-122.38093448, 37.57746943], [-122.37983255, 37.57730687], [-122.3784178, 37.57783949], [-122.37809671, 37.57742927]]]]}}, {"type": "Feature", "properties": {"name": "Skyfarm", "slug": "skyfarm"}, "geometry": {"type": "MultiPolygon", "coordinates": [[[[-122.37853873, 37.57227392], [-122.37748437, 37.56925101], [-122.3777699, 37.56893692], [-122.3754999, 37.56825164], [-122.3735297, 37.57030749], [-122.3716052, 37.57068154], [-122.3693685, 37.57162381], [-122.36909248, 37.57216633], [-122.36844527, 37.57248041], [-122.36860707, 37.57145249], [-122.369635, 37.57008192], [-122.37029173, 37.56865424], [-122.37044402, 37.56709332], [-122.36989198, 37.56666501], [-122.3701918, 37.56607253], [-122.36766481, 37.56408806], [-122.36732216, 37.56323145], [-122.36816449, 37.56300302], [-122.36896399, 37.56251761], [-122.37308334, 37.55919965], [-122.37345215, 37.55887843], [-122.37438014, 37.55710573], [-122.37512967, 37.55645138], [-122.37555798, 37.55620153], [-122.37729498, 37.55579702], [-122.37870049, 37.55496555], [-122.3797027, 37.55637378], [-122.38461384, 37.56147069], [-122.38945789, 37.56617981], [-122.38933196, 37.56649183], [-122.38859909, 37.5670629], [-122.38918919, 37.5677577], [-122.38849439, 37.56811938], [-122.38813271, 37.5685572], [-122.38696202, 37.56728181], [-122.38530591, 37.56824311], [-122.38355939, 37.56896647], [-122.38341662, 37.56929959], [-122.38251243, 37.56984687], [-122.38232207, 37.57020379], [-122.38253622, 37.57063209], [-122.3839401, 37.57141731], [-122.38267899, 37.57246427], [-122.38077542, 37.57244048], [-122.37991881, 37.57222633], [-122.37853873, 37.57227392]]]]}}, {"type": "Feature", "properties": {"name": "Hillsborough Oaks", "slug": "hillsborough-oaks"}, "geometry": {"type": "MultiPolygon", "coordinates": [[[[-122.36698356, 37.57704298], [-122.36817448, 37.57718218], [-122.37094061, 37.57209608], [-122.37132727, 37.57167967], [-122.37424211, 37.57185814], [-122.37653234, 37.5722448], [-122.37751387, 37.57191762], [-122.37853873, 37.57227392], [-122.37824229, 37.57241074], [-122.37830177, 37.57291042], [-122.37787347, 37.57400498], [-122.37856351, 37.57426672], [-122.37840885, 37.57445707], [-122.37850402, 37.57470692], [-122.37911079, 37.57481399], [-122.37924166, 37.57501625], [-122.37912268, 37.57526609], [-122.37764742, 37.57588475], [-122.3777307, 37.57632495], [-122.37808762, 37.57646772], [-122.37809671, 37.57742927], [-122.37634383, 37.57862637], [-122.3760469, 37.57858105], [-122.37586178, 37.5787267], [-122.37597074, 37.57894935], [-122.37579679, 37.57914292], [-122.37477357, 37.57978085], [-122.37394056, 37.57944441], [-122.37354247, 37.57959538], [-122.37333529, 37.58007851], [-122.37252048, 37.5801687], [-122.37198633, 37.58084851], [-122.37181284, 37.58074476], [-122.37181161, 37.58017048], [-122.37168981, 37.58010219], [-122.37145798, 37.58046068], [-122.37104821, 37.58023099], [-122.37133714, 37.57990451], [-122.36948035, 37.57886426], [-122.36976105, 37.5786471], [-122.36931971, 37.57803998], [-122.36879842, 37.57828217], [-122.36842702, 37.57807478], [-122.36830238, 37.57820648], [-122.36812385, 37.57810679], [-122.36708846, 37.57866611], [-122.36650767, 37.57862294], [-122.36603178, 37.57795669], [-122.36664092, 37.57759501], [-122.36698356, 37.57704298]]]]}}, {"type": "Feature", "properties": {"name": "Ryan Tract", "slug": "ryan-tract"}, "geometry": {"type": "MultiPolygon", "coordinates": [[[[-122.35374964, 37.57448757], [-122.35435517, 37.57506208], [-122.35536882, 37.57551894], [-122.35678222, 37.57586158], [-122.35793864, 37.57530478], [-122.35856682, 37.57479082], [-122.35928065, 37.57513346], [-122.35966613, 37.57570453], [-122.36190758, 37.57430541], [-122.36286412, 37.57312044], [-122.36324959, 37.57296339], [-122.36413475, 37.57313472], [-122.36444884, 37.57324893], [-122.36480576, 37.57383428], [-122.3652769, 37.57414837], [-122.36683128, 37.5744922], [-122.36723103, 37.57494905], [-122.36732621, 37.57523459], [-122.36683128, 37.57650998], [-122.36698356, 37.57704298], [-122.36664092, 37.57759501], [-122.36603178, 37.57795669], [-122.36650767, 37.57862294], [-122.36708846, 37.57866611], [-122.36344252, 37.58060295], [-122.36304864, 37.58003624], [-122.36274162, 37.5800538], [-122.36076456, 37.57910398], [-122.35884087, 37.5772369], [-122.35822022, 37.57747402], [-122.35772793, 37.57792099], [-122.35685409, 37.57730329], [-122.35601809, 37.5784958], [-122.3542039, 37.57751529], [-122.35256428, 37.57705718], [-122.35267878, 37.57670399], [-122.35243213, 37.57637774], [-122.35264971, 37.575676], [-122.3524336, 37.57566063], [-122.35293558, 37.57477302], [-122.35374964, 37.57448757]]]]}}, {"type": "Feature", "properties": {"name": "Country Club Manor", "slug": "country-club-manor"}, "geometry": {"type": "MultiPolygon", "coordinates": [[[[-122.36698356, 37.57704298], [-122.36683128, 37.57650998], [-122.36732621, 37.57523459], [-122.36723103, 37.57494905], [-122.36683128, 37.5744922], [-122.3652769, 37.57414837], [-122.36480576, 37.57383428], [-122.36444884, 37.57324893], [-122.36413475, 37.57313472], [-122.36324959, 37.57296339], [-122.36286412, 37.57312044], [-122.36190758, 37.57430541], [-122.35966613, 37.57570453], [-122.35928065, 37.57513346], [-122.35856682, 37.57479082], [-122.35793864, 37.57530478], [-122.35678222, 37.57586158], [-122.35536882, 37.57551894], [-122.35395542, 37.57477654], [-122.35274277, 37.57282147], [-122.35406859, 37.57202972], [-122.35657243, 37.57146887], [-122.36049379, 37.56855641], [-122.36131232, 37.5671668], [-122.36262578, 37.56625309], [-122.36312071, 37.56547263], [-122.36551921, 37.56434952], [-122.36668039, 37.56339774], [-122.36732216, 37.56323145], [-122.36766481, 37.56408806], [-122.3701918, 37.56607253], [-122.36989198, 37.56666501], [-122.37044402, 37.56709332], [-122.37029173, 37.56865424], [-122.369635, 37.57008192], [-122.36860707, 37.57145249], [-122.36844527, 37.57248041], [-122.36909248, 37.57216633], [-122.3693685, 37.57162381], [-122.3716052, 37.57068154], [-122.3735297, 37.57030749], [-122.3754999, 37.56825164], [-122.3777699, 37.56893692], [-122.37748437, 37.56925101], [-122.37853873, 37.57227392], [-122.37751387, 37.57191762], [-122.37653234, 37.5722448], [-122.37424211, 37.57185814], [-122.37132727, 37.57167967], [-122.37094061, 37.57209608], [-122.36817448, 37.57718218], [-122.36698356, 37.57704298]]]]}}, {"type": "Feature", "properties": {"name": "Tobin Clark Estate", "slug": "tobin-clark-estate"}, "geometry": {"type": "MultiPolygon", "coordinates": [[[[-122.34597406, 37.53973982], [-122.34581635, 37.54048231], [-122.34539994, 37.54098794], [-122.34382355, 37.54211819], [-122.34263382, 37.54217767], [-122.33246268, 37.55060947], [-122.32913351, 37.54833567], [-122.32863405, 37.54867185], [-122.32838364, 37.54864223], [-122.33015442, 37.54715538], [-122.33257537, 37.54417255], [-122.33019144, 37.54127896], [-122.33295687, 37.5389242], [-122.33355522, 37.53938484], [-122.33522627, 37.53801553], [-122.3386097, 37.54060554], [-122.34100914, 37.53832436], [-122.33727455, 37.53534349], [-122.34159716, 37.53174881], [-122.343387, 37.53352497], [-122.34431114, 37.53634427], [-122.34568391, 37.53893459], [-122.34572791, 37.53968938], [-122.34597406, 37.53973982]]]]}}, {"type": "Feature", "properties": {"name": "Parrot Drive Area", "slug": "parrot-drive-area"}, "geometry": {"type": "MultiPolygon", "coordinates": [[[[-122.33841289, 37.54657569], [-122.33956489, 37.54536968], [-122.34184188, 37.54344956], [-122.34195908, 37.54285956], [-122.34217078, 37.54258566], [-122.34434887, 37.54113874], [-122.34469587, 37.54153564], [-122.34553367, 37.54084173], [-122.34610686, 37.53975463], [-122.34938185, 37.5397476], [-122.34962685, 37.5401096], [-122.34962885, 37.5409636], [-122.34922985, 37.54156061], [-122.34905386, 37.54239561], [-122.34768086, 37.54342862], [-122.34647886, 37.54520163], [-122.34657836, 37.54566763], [-122.34757586, 37.54643162], [-122.34769186, 37.54671462], [-122.34753386, 37.54740862], [-122.34701486, 37.54805873], [-122.34552187, 37.54841564], [-122.34352888, 37.54920965], [-122.34110688, 37.55100467], [-122.34032389, 37.55039868], [-122.34061688, 37.55010267], [-122.34069088, 37.54967467], [-122.33927689, 37.54747368], [-122.33917289, 37.54701468], [-122.33841289, 37.54657569]]]]}}]}